<?xml version="1.0" encoding="UTF-8"?><kml xmlns="http://www.opengis.net/kml/2.2"><Document><name>【被参照】名士バス</name><description>↓↓被参照一覧はコチラ↓↓&lt;br /&gt;https://shimousaminato.github.io/reference/index.html&lt;br /&gt;#下総印の被参照&lt;br /&gt;#北海道&lt;br /&gt;#名士バス</description><Style id="s0"><LineStyle><color>e6800000</color><width>6</width></LineStyle></Style><Style id="s1"><LineStyle><color>107a3011</color><width>6</width></LineStyle></Style><Style id="s2"><LineStyle><color>105a8e04</color><width>6</width></LineStyle></Style><Style id="s3"><LineStyle><color>1022b98e</color><width>6</width></LineStyle></Style><Style id="s4"><LineStyle><color>10784da8</color><width>6</width></LineStyle></Style><Style id="s5"><LineStyle><color>1005009a</color><width>6</width></LineStyle></Style><Style id="s6"><LineStyle><color>e64afd86</color><width>6</width></LineStyle></Style><Style id="sp0"><IconStyle><color>ffFFFFFF</color><scale>0.2</scale><Icon><href>http://www.gstatic.com/mapspro/images/stock/959-wht-circle-blank.png</href></Icon></IconStyle></Style><Placemark><name>名士バス</name><description></description><styleUrl>#s0</styleUrl><LineString><extrude>1</extrude><tessellate>1</tessellate><altitudeMode>absolute</altitudeMode><coordinates></coordinates></LineString></Placemark><Placemark><name>名寄市内回り徳田線</name><description></description><styleUrl>#s1</styleUrl><LineString><extrude>1</extrude><tessellate>1</tessellate><altitudeMode>absolute</altitudeMode><coordinates>142.451353,44.338732 142.451278,44.338547 142.450273,44.33855 142.450266,44.340764 142.450254,44.345555 142.450253,44.346365 142.452358,44.346356 142.452362,44.348457 142.452357,44.349551 142.452327,44.349615 142.452252,44.349657 142.452169,44.349668 142.451941,44.34967 142.450263,44.349658 142.450254,44.350997 142.450247,44.354016 142.450239,44.355799 142.450234,44.356348 142.45276,44.356353 142.457208,44.356357 142.457217,44.357103 142.457196,44.359097 142.457212,44.361081 142.457745,44.361085 142.460136,44.361102 142.460476,44.361106 142.460467,44.363573 142.460464,44.365864 142.460454,44.366428 142.462695,44.366433 142.464191,44.366441 142.464208,44.365767 142.464227,44.365479 142.464225,44.365339 142.464214,44.365212 142.4642,44.365059 142.464158,44.364898 142.46405,44.364656 142.463967,44.364487 142.463914,44.364356 142.463865,44.364228 142.463831,44.364096 142.463804,44.36394 142.463796,44.363741 142.463799,44.363543 142.463783,44.361112 142.463791,44.358235 142.463802,44.356383 142.468788,44.356389 142.468791,44.356001 142.468796,44.353518 142.468803,44.349124 142.468799,44.346409 142.468025,44.346405 142.463821,44.346411 142.463825,44.346957 142.463837,44.349421 142.464195,44.34942 142.464275,44.349449 142.464441,44.349606 142.464495,44.349641 142.464594,44.349654 142.46475,44.349656 142.464884,44.349645 142.464951,44.34961 142.464978,44.349554 142.464986,44.349472 142.46494,44.349406 142.464847,44.349378 142.464518,44.349377 142.463837,44.349375 142.463837,44.349336 142.461278,44.349339 142.458451,44.349334 142.452852,44.349341 142.452362,44.349342 142.452359,44.346356 142.450251,44.346365 142.450254,44.345556 142.450265,44.340764 142.450273,44.33855 142.451279,44.338549 142.451356,44.338733 </coordinates></LineString></Placemark><Placemark><name>下川線</name><description></description><styleUrl>#s2</styleUrl><LineString><extrude>1</extrude><tessellate>1</tessellate><altitudeMode>absolute</altitudeMode><coordinates>142.452362,44.348457 142.452358,44.349342 142.458451,44.349334 142.463837,44.349336 142.463837,44.34942 142.464195,44.34942 142.464275,44.349449 142.46444,44.349604 142.464494,44.34964 142.464593,44.349654 142.464751,44.349656 142.464885,44.349644 142.46495,44.349611 142.464978,44.349554 142.464986,44.349474 142.464939,44.349406 142.464848,44.349379 142.464518,44.349377 142.463837,44.349375 142.463819,44.353659 142.463804,44.355758 142.463804,44.356385 142.471221,44.356395 142.47307,44.356392 142.473148,44.356384 142.473217,44.356359 142.47326,44.356322 142.47329,44.356282 142.473311,44.356221 142.473314,44.356144 142.473309,44.35218 142.473318,44.351391 142.473323,44.35115 142.473323,44.351 142.473342,44.350871 142.47336,44.350712 142.473396,44.350552 142.473431,44.350409 142.473482,44.350219 142.473556,44.350012 142.473642,44.349822 142.473733,44.349633 142.474141,44.348813 142.474343,44.348408 142.474445,44.348224 142.474512,44.348074 142.474592,44.347865 142.474662,44.347656 142.474705,44.347486 142.474745,44.347298 142.474772,44.347081 142.474799,44.346833 142.474826,44.346394 142.474863,44.345978 142.474906,44.345422 142.475062,44.343688 142.475247,44.341399 142.475735,44.335721 142.475987,44.332814 142.476006,44.332628 142.476038,44.332488 142.476078,44.332312 142.476132,44.332171 142.476191,44.332037 142.476274,44.331882 142.476365,44.331746 142.476465,44.331606 142.476593,44.331462 142.476808,44.331241 142.476939,44.331126 142.477165,44.330955 142.477366,44.330827 142.477728,44.330612 142.478334,44.330245 142.479753,44.329411 142.479935,44.329303 142.480145,44.3292 142.480367,44.329096 142.480587,44.329015 142.480807,44.328946 142.481043,44.328885 142.481301,44.328833 142.481604,44.328789 142.481904,44.32876 142.482153,44.328749 142.482424,44.328754 142.482682,44.328774 142.482934,44.328802 142.483586,44.328902 142.487794,44.329576 142.493694,44.33052 142.500505,44.331609 142.505051,44.332352 142.505499,44.332421 142.505826,44.332469 142.50614,44.332498 142.506398,44.332515 142.506633,44.332523 142.506867,44.332519 142.507122,44.332509 142.507414,44.33248 142.507699,44.33244 142.507926,44.332407 142.508166,44.332356 142.508433,44.332294 142.508768,44.33221 142.509222,44.332095 142.509876,44.331928 142.510244,44.33183 142.510566,44.331755 142.510933,44.33168 142.511397,44.331594 142.511767,44.331531 142.51221,44.331471 142.512628,44.331425 142.51453,44.331245 142.515627,44.331143 142.516123,44.331095 142.516432,44.331063 142.516753,44.331018 142.517051,44.330967 142.517349,44.330899 142.517657,44.330821 142.517968,44.330727 142.518835,44.330464 142.519103,44.330383 142.519463,44.330291 142.5199,44.33019 142.520289,44.330103 142.52068,44.330026 142.520997,44.329973 142.521327,44.329919 142.521659,44.329871 142.522005,44.32983 142.522447,44.329782 142.522844,44.329743 142.52327,44.329715 142.523656,44.329697 142.524787,44.329645 142.525784,44.329599 142.527633,44.329515 142.528089,44.32949 142.528327,44.329471 142.528499,44.329452 142.528654,44.329429 142.528874,44.329398 142.529127,44.329347 142.529408,44.329288 142.529665,44.329221 142.529895,44.329154 142.530121,44.329083 142.530311,44.329012 142.530523,44.328926 142.530901,44.32877 142.533471,44.327683 142.533673,44.327599 142.533856,44.32752 142.534017,44.327447 142.534189,44.327357 142.534331,44.327268 142.534486,44.327161 142.534612,44.327072 142.534735,44.326967 142.534843,44.326873 142.534974,44.326742 142.535089,44.326619 142.53518,44.326493 142.535274,44.326352 142.535365,44.326205 142.535441,44.326045 142.535507,44.325869 142.535553,44.325719 142.535582,44.325561 142.535598,44.325404 142.535631,44.324849 142.535623,44.324544 142.535628,44.324346 142.535641,44.324166 142.53569,44.323858 142.535722,44.323682 142.535765,44.323511 142.535821,44.32335 142.535896,44.323188 142.53599,44.323017 142.536094,44.32286 142.536224,44.322699 142.536369,44.322545 142.536537,44.322392 142.536748,44.322219 142.537228,44.321823 142.538038,44.32115 142.538188,44.321034 142.538373,44.320912 142.538555,44.320806 142.538796,44.320685 142.538957,44.320612 142.539145,44.320538 142.539349,44.320471 142.539582,44.320405 142.54,44.320301 142.54314,44.319512 142.544015,44.319294 142.544348,44.319211 142.54476,44.319115 142.545157,44.319025 142.545691,44.318915 142.546513,44.318761 142.549146,44.318265 142.54961,44.318174 142.549926,44.318113 142.550169,44.318062 142.550504,44.317982 142.550864,44.317886 142.551146,44.317813 142.551438,44.317717 142.551647,44.317652 142.555009,44.316512 142.555364,44.316391 142.555601,44.316302 142.555818,44.316208 142.556046,44.316108 142.556279,44.315995 142.55666,44.315797 142.560513,44.313834 142.562409,44.312866 142.562634,44.312751 142.562822,44.312664 142.56302,44.312582 142.563256,44.312497 142.563487,44.312426 142.563698,44.312376 142.563931,44.312328 142.564173,44.312292 142.564366,44.312271 142.564597,44.312259 142.564825,44.312255 142.565116,44.312261 142.565473,44.312278 142.566143,44.312311 142.566639,44.312337 142.567223,44.312364 142.567757,44.312387 142.568062,44.312399 142.568336,44.312399 142.568596,44.312393 142.568875,44.312378 142.569137,44.312354 142.569376,44.312329 142.569649,44.312289 142.571049,44.31209 142.578453,44.311048 142.585447,44.310057 142.593422,44.308925 142.598709,44.308175 142.60533,44.307235 142.606448,44.30708 142.608169,44.306838 142.60877,44.306755 142.60908,44.306713 142.609373,44.306669 142.609674,44.306612 142.609978,44.306552 142.610315,44.306476 142.610611,44.306402 142.611008,44.3063 142.612297,44.305951 142.61581,44.304989 142.616301,44.304858 142.616485,44.304812 142.616662,44.304772 142.61685,44.304749 142.61708,44.304731 142.617275,44.304724 142.617496,44.304731 142.618994,44.304747 142.619852,44.304764 142.620487,44.304781 142.621078,44.304796 142.622383,44.304848 142.625019,44.304948 142.62933,44.305105 142.629683,44.305119 142.629885,44.305117 142.630045,44.305109 142.630187,44.30509 142.630394,44.30504 142.633401,44.304319 142.635872,44.303719 142.639114,44.302942 142.63946,44.302862 142.639276,44.302184 142.63919,44.301905 142.638811,44.300836 142.638785,44.300752 142.63845,44.300784 142.638383,44.300806 142.638367,44.300857 142.638384,44.300925 </coordinates></LineString></Placemark><Placemark><name>興部線</name><description></description><styleUrl>#s3</styleUrl><LineString><extrude>1</extrude><tessellate>1</tessellate><altitudeMode>absolute</altitudeMode><coordinates>142.452362,44.348457 142.452358,44.349342 142.458451,44.349334 142.463837,44.349336 142.463837,44.34942 142.464195,44.34942 142.464275,44.349449 142.46444,44.349604 142.464494,44.34964 142.464593,44.349654 142.464751,44.349656 142.464885,44.349644 142.46495,44.349611 142.464978,44.349554 142.464986,44.349474 142.464939,44.349406 142.464848,44.349379 142.464518,44.349377 142.463837,44.349375 142.463825,44.346958 142.463821,44.34654 142.463823,44.346409 142.463847,44.346317 142.463909,44.346154 142.463963,44.34598 142.464014,44.345838 142.464062,44.345692 142.464113,44.345518 142.464142,44.345397 142.464185,44.345186 142.464223,44.344927 142.464247,44.344606 142.464252,44.344085 142.464255,44.341418 142.464271,44.336784 142.464282,44.336321 142.465508,44.336325 142.470051,44.336335 142.475683,44.336334 142.475735,44.335721 142.475987,44.332814 142.476006,44.332628 142.476038,44.332488 142.476078,44.332312 142.476132,44.332171 142.476191,44.332037 142.476274,44.331882 142.476365,44.331746 142.476465,44.331606 142.476593,44.331462 142.476808,44.331241 142.476939,44.331126 142.477165,44.330955 142.477366,44.330827 142.477728,44.330612 142.478334,44.330245 142.479753,44.329411 142.479935,44.329303 142.480145,44.3292 142.480367,44.329096 142.480587,44.329015 142.480807,44.328946 142.481043,44.328885 142.481301,44.328833 142.481604,44.328789 142.481904,44.32876 142.482153,44.328749 142.482424,44.328754 142.482682,44.328774 142.482934,44.328802 142.483586,44.328902 142.487794,44.329576 142.493694,44.33052 142.500505,44.331609 142.505051,44.332352 142.505499,44.332421 142.505826,44.332469 142.50614,44.332498 142.506398,44.332515 142.506633,44.332523 142.506867,44.332519 142.507122,44.332509 142.507414,44.33248 142.507699,44.33244 142.507926,44.332407 142.508166,44.332356 142.508433,44.332294 142.508768,44.33221 142.509222,44.332095 142.509876,44.331928 142.510244,44.33183 142.510566,44.331755 142.510933,44.33168 142.511397,44.331594 142.511767,44.331531 142.51221,44.331471 142.512628,44.331425 142.51453,44.331245 142.515627,44.331143 142.516123,44.331095 142.516432,44.331063 142.516753,44.331018 142.517051,44.330967 142.517349,44.330899 142.517657,44.330821 142.517968,44.330727 142.518835,44.330464 142.519103,44.330383 142.519463,44.330291 142.5199,44.33019 142.520289,44.330103 142.52068,44.330026 142.520997,44.329973 142.521327,44.329919 142.521659,44.329871 142.522005,44.32983 142.522447,44.329782 142.522844,44.329743 142.52327,44.329715 142.523656,44.329697 142.524787,44.329645 142.525784,44.329599 142.527633,44.329515 142.528089,44.32949 142.528327,44.329471 142.528499,44.329452 142.528654,44.329429 142.528874,44.329398 142.529127,44.329347 142.529408,44.329288 142.529665,44.329221 142.529895,44.329154 142.530121,44.329083 142.530311,44.329012 142.530523,44.328926 142.530901,44.32877 142.533471,44.327683 142.533673,44.327599 142.533856,44.32752 142.534017,44.327447 142.534189,44.327357 142.534331,44.327268 142.534486,44.327161 142.534612,44.327072 142.534735,44.326967 142.534843,44.326873 142.534974,44.326742 142.535089,44.326619 142.53518,44.326493 142.535274,44.326352 142.535365,44.326205 142.535441,44.326045 142.535507,44.325869 142.535553,44.325719 142.535582,44.325561 142.535598,44.325404 142.535631,44.324849 142.535623,44.324544 142.535628,44.324346 142.535641,44.324166 142.53569,44.323858 142.535722,44.323682 142.535765,44.323511 142.535821,44.32335 142.535896,44.323188 142.53599,44.323017 142.536094,44.32286 142.536224,44.322699 142.536369,44.322545 142.536537,44.322392 142.536748,44.322219 142.537228,44.321823 142.538038,44.32115 142.538188,44.321034 142.538373,44.320912 142.538555,44.320806 142.538796,44.320685 142.538957,44.320612 142.539145,44.320538 142.539349,44.320471 142.539582,44.320405 142.54,44.320301 142.54314,44.319512 142.544015,44.319294 142.544348,44.319211 142.54476,44.319115 142.545157,44.319025 142.545691,44.318915 142.546513,44.318761 142.549146,44.318265 142.54961,44.318174 142.549926,44.318113 142.550169,44.318062 142.550504,44.317982 142.550864,44.317886 142.551146,44.317813 142.551438,44.317717 142.551647,44.317652 142.555009,44.316512 142.555364,44.316391 142.555601,44.316302 142.555818,44.316208 142.556046,44.316108 142.556279,44.315995 142.55666,44.315797 142.560513,44.313834 142.562409,44.312866 142.562634,44.312751 142.562822,44.312664 142.56302,44.312582 142.563256,44.312497 142.563487,44.312426 142.563698,44.312376 142.563931,44.312328 142.564173,44.312292 142.564366,44.312271 142.564597,44.312259 142.564825,44.312255 142.565116,44.312261 142.565473,44.312278 142.566143,44.312311 142.566639,44.312337 142.567223,44.312364 142.567757,44.312387 142.568062,44.312399 142.568336,44.312399 142.568596,44.312393 142.568875,44.312378 142.569137,44.312354 142.569376,44.312329 142.569649,44.312289 142.571049,44.31209 142.578453,44.311048 142.585447,44.310057 142.593422,44.308925 142.598709,44.308175 142.60533,44.307235 142.606448,44.30708 142.608169,44.306838 142.60877,44.306755 142.60908,44.306713 142.609373,44.306669 142.609674,44.306612 142.609978,44.306552 142.610315,44.306476 142.610611,44.306402 142.611008,44.3063 142.612297,44.305951 142.61581,44.304989 142.616301,44.304858 142.616485,44.304812 142.616662,44.304772 142.61685,44.304749 142.61708,44.304731 142.617275,44.304724 142.617496,44.304731 142.618994,44.304747 142.619852,44.304764 142.620487,44.304781 142.621078,44.304796 142.622383,44.304848 142.625019,44.304948 142.62933,44.305105 142.629683,44.305119 142.629885,44.305117 142.630045,44.305109 142.630187,44.30509 142.630394,44.30504 142.633401,44.304319 142.635872,44.303719 142.639114,44.302942 142.63946,44.302862 142.639276,44.302184 142.63919,44.301905 142.638811,44.300836 142.638785,44.300752 142.63845,44.300784 142.638383,44.300806 142.638367,44.300857 142.638384,44.300925 142.638402,44.300967 142.638426,44.300996 142.638466,44.301004 142.638526,44.300996 142.638845,44.300933 142.639191,44.301905 142.639276,44.302184 142.63946,44.302863 142.643476,44.301885 142.643909,44.301779 142.644084,44.301741 142.644221,44.301716 142.644352,44.301695 142.644492,44.301681 142.644634,44.301683 142.644819,44.301698 142.644985,44.30172 142.645132,44.301752 142.645282,44.301802 142.645526,44.301908 142.646194,44.302188 142.64932,44.3035 142.649553,44.303595 142.649688,44.303644 142.649846,44.303688 142.650004,44.303726 142.650189,44.303757 142.650417,44.303786 142.650583,44.303795 142.650762,44.303795 142.650947,44.303788 142.651138,44.30377 142.651304,44.303741 142.651502,44.303697 142.651703,44.303638 142.65191,44.303564 142.65539,44.302209 142.656237,44.301883 142.656469,44.30179 142.6566,44.30173 142.656731,44.301673 142.656847,44.301615 142.656967,44.30154 142.657086,44.301456 142.657177,44.301391 142.657282,44.301299 142.657365,44.301226 142.657445,44.301135 142.657518,44.301041 142.657603,44.300911 142.657666,44.3008 142.657754,44.300613 142.657861,44.300373 142.65792,44.300262 142.657979,44.300166 142.658054,44.30007 142.658129,44.299989 142.658215,44.299893 142.65832,44.299796 142.658422,44.299719 142.658551,44.299634 142.658663,44.299569 142.658795,44.299496 142.658913,44.299438 142.659084,44.299362 142.659419,44.299223 142.660612,44.298726 142.660741,44.29868 142.660869,44.298634 142.661054,44.29858 142.661247,44.29853 142.661451,44.298488 142.661641,44.298451 142.661856,44.298429 142.662081,44.298413 142.662287,44.298403 142.662633,44.298401 142.666008,44.298356 142.666422,44.298357 142.666832,44.298369 142.667145,44.298383 142.667406,44.298402 142.667695,44.298429 142.668031,44.298472 142.668535,44.298546 142.668878,44.29861 142.669162,44.29867 142.669716,44.298793 142.673572,44.299677 142.679578,44.301047 142.680141,44.301182 142.68042,44.301259 142.68084,44.301403 142.681223,44.301562 142.681541,44.301721 142.68186,44.301906 142.682292,44.30217 142.682467,44.302299 142.682743,44.302522 142.682965,44.302718 142.683255,44.303017 142.683643,44.303425 142.685751,44.305623 142.685955,44.305831 142.686115,44.30599 142.686306,44.306161 142.686531,44.30633 142.686731,44.306463 142.686945,44.306597 142.687201,44.306734 142.687439,44.306845 142.687664,44.306939 142.6879,44.307027 142.688203,44.307125 142.688562,44.307227 142.691087,44.308013 142.693041,44.308616 142.694223,44.30898 142.694687,44.309122 142.694952,44.3092 142.695185,44.309261 142.695389,44.309309 142.695598,44.309349 142.695877,44.309391 142.696148,44.309422 142.696343,44.309437 142.696591,44.309447 142.697597,44.309486 142.697835,44.309507 142.698005,44.309533 142.698181,44.309572 142.698351,44.309627 142.698514,44.309688 142.698675,44.309769 142.698839,44.309872 142.698973,44.30998 142.699117,44.310118 142.699968,44.311023 142.70024,44.311312 142.700421,44.311482 142.700578,44.311612 142.700763,44.311746 142.700905,44.311846 142.701103,44.311976 142.701261,44.312084 142.701465,44.312182 142.701644,44.312269 142.701832,44.312349 142.702068,44.312439 142.702245,44.312508 142.702395,44.31256 142.702607,44.312624 142.702912,44.312704 142.703368,44.312816 142.704248,44.313021 142.704495,44.313078 142.704699,44.313134 142.70502,44.31324 142.705221,44.313314 142.705478,44.31341 142.705685,44.31349 142.706008,44.313629 142.706325,44.313792 142.706711,44.314005 142.710369,44.316286 142.710546,44.316397 142.710741,44.316507 142.71091,44.316605 142.711128,44.316708 142.711309,44.316782 142.711486,44.316853 142.711733,44.316937 142.711928,44.316999 142.712119,44.31705 142.712357,44.317108 142.712609,44.317154 142.712826,44.317191 142.713054,44.317222 142.713258,44.317241 142.713467,44.317253 142.713705,44.31726 142.713952,44.317262 142.714306,44.317248 142.715204,44.31721 142.719896,44.317017 142.725119,44.316801 142.733724,44.31645 142.739555,44.316219 142.740432,44.316194 142.740678,44.316197 142.740952,44.316202 142.741347,44.316222 142.741674,44.316249 142.742079,44.316295 142.742432,44.316345 142.742698,44.316391 142.743106,44.316475 142.744518,44.316782 142.747655,44.317456 142.749602,44.317882 142.750967,44.318178 142.751587,44.318298 142.756329,44.319227 142.757087,44.319373 142.757481,44.319442 142.757795,44.319488 142.758068,44.319523 142.758377,44.319556 142.758687,44.319579 142.759025,44.319592 142.759347,44.3196 142.759719,44.319598 142.760067,44.319582 142.760421,44.319559 142.761016,44.319517 142.764174,44.319292 142.764454,44.319275 142.764764,44.319248 142.764957,44.319225 142.765204,44.319181 142.767602,44.318739 142.767891,44.318686 142.768112,44.318652 142.768293,44.318634 142.768588,44.318613 142.769741,44.318528 142.770915,44.318442 142.771145,44.318422 142.771344,44.318415 142.771521,44.318414 142.771752,44.318424 142.771974,44.318448 142.772173,44.318484 142.772457,44.318547 142.772717,44.318595 142.772867,44.318618 142.773034,44.318634 142.773197,44.318632 142.773353,44.318624 142.773506,44.318605 142.773691,44.31857 142.773895,44.318513 142.774077,44.318449 142.774265,44.318367 142.774541,44.318231 142.775501,44.317778 142.775858,44.317611 142.776134,44.317494 142.776424,44.317382 142.776757,44.317273 142.777078,44.31718 142.777379,44.317112 142.777658,44.317054 142.777977,44.316997 142.77869,44.316878 142.779117,44.3168 142.779474,44.316736 142.781882,44.316303 142.782116,44.316262 142.782301,44.316223 142.782497,44.316175 142.782703,44.316118 142.782926,44.316047 142.783127,44.315974 142.783344,44.315891 142.783607,44.315765 142.783851,44.315647 142.784978,44.315082 142.785257,44.314958 142.785546,44.314842 142.785788,44.314757 142.786085,44.314661 142.786469,44.314561 142.790776,44.313476 142.791613,44.313266 142.792002,44.313165 142.792379,44.313051 142.792773,44.312916 142.793181,44.312761 142.793493,44.312626 142.794037,44.312363 142.794495,44.312136 142.794758,44.312015 142.794968,44.311928 142.795212,44.311846 142.795471,44.311775 142.795707,44.311719 142.795972,44.311668 142.796232,44.311636 142.796466,44.31162 142.796683,44.311609 142.796918,44.311613 142.797172,44.311628 142.797441,44.311656 142.797685,44.311698 142.797896,44.311736 142.798149,44.311811 142.798366,44.311873 142.798578,44.311958 142.798831,44.312063 142.799123,44.312216 142.801386,44.31342 142.802457,44.314067 142.802926,44.314372 142.803643,44.314863 142.804458,44.31547 142.805179,44.316063 142.805575,44.316413 142.806091,44.316896 142.806757,44.317547 142.80706,44.317863 142.807628,44.318434 142.808141,44.318957 142.808701,44.319521 142.80919,44.320011 142.80953,44.320384 142.809701,44.320586 142.809914,44.320916 142.810077,44.321193 142.810149,44.321358 142.810254,44.321604 142.810334,44.321894 142.810409,44.32225 142.810479,44.3227 142.810975,44.325729 142.811143,44.326802 142.811252,44.327507 142.811478,44.328911 142.811536,44.329422 142.811558,44.32968 142.811579,44.330099 142.811673,44.331809 142.811695,44.332052 142.811752,44.332299 142.811811,44.332514 142.811895,44.332764 142.812016,44.333119 142.812234,44.333748 142.812376,44.33422 142.812647,44.334969 142.812735,44.335194 142.812793,44.33535 142.81288,44.335517 142.812976,44.335658 142.813101,44.335798 142.813231,44.335909 142.813396,44.33601 142.813555,44.336116 142.813798,44.336225 142.814075,44.336336 142.815083,44.336686 142.816912,44.337349 142.817193,44.337434 142.817453,44.337509 142.817697,44.337563 142.817978,44.337617 142.81822,44.337665 142.819258,44.337835 142.819664,44.337903 142.820061,44.337988 142.820366,44.338059 142.820701,44.338166 142.82096,44.338254 142.821298,44.338379 142.821572,44.338511 142.824159,44.339719 142.828108,44.341415 142.828341,44.341518 142.828614,44.341616 142.828949,44.341735 142.829243,44.341826 142.829572,44.341919 142.829886,44.342003 142.830221,44.342076 142.830528,44.342134 142.830827,44.342186 142.831083,44.34222 142.831585,44.342276 142.832501,44.342349 142.839409,44.342966 142.839678,44.342986 142.840008,44.342998 142.840255,44.342998 142.840541,44.342984 142.840807,44.342964 142.841035,44.342939 142.841296,44.342893 142.841545,44.342847 142.841821,44.342781 142.842119,44.342698 142.842406,44.342601 142.842659,44.342497 142.84293,44.342378 142.843198,44.342236 142.843432,44.342093 142.843652,44.341955 142.843861,44.341805 142.844157,44.341582 142.844964,44.340955 142.848804,44.337958 142.849069,44.337762 142.849303,44.337599 142.849553,44.337435 142.849807,44.337282 142.850099,44.337131 142.850348,44.337016 142.850579,44.336914 142.850922,44.336787 142.851289,44.336665 142.851512,44.336595 142.85218,44.336407 142.854086,44.335876 142.855377,44.335517 142.85565,44.335442 142.856059,44.335344 142.85637,44.335277 142.856636,44.335222 142.857101,44.335136 142.85743,44.335088 142.85781,44.335044 142.858161,44.335003 142.858488,44.334972 142.858877,44.334945 142.859349,44.334927 142.86393,44.334772 142.864727,44.334745 142.864941,44.33474 142.865171,44.334743 142.865415,44.33475 142.865669,44.334768 142.865937,44.334797 142.866176,44.33483 142.866488,44.334886 142.86677,44.334957 142.866977,44.335013 142.867237,44.335096 142.867573,44.335221 142.867989,44.3354 142.868865,44.33575 142.869137,44.335842 142.869381,44.335916 142.869663,44.335982 142.869923,44.336033 142.870178,44.336076 142.870401,44.336103 142.870661,44.336122 142.870934,44.336137 142.87117,44.336143 142.871661,44.336152 142.87352,44.336198 142.875968,44.336287 142.876233,44.3363 142.876492,44.336325 142.876821,44.336377 142.878604,44.336665 142.880581,44.336983 142.88151,44.337127 142.883424,44.33743 142.88384,44.337505 142.884167,44.33757 142.884476,44.337643 142.885036,44.337772 142.886943,44.338211 142.896447,44.340384 142.896665,44.34044 142.896883,44.340489 142.897102,44.340531 142.89732,44.340566 142.897539,44.340594 142.897759,44.340615 142.897978,44.340629 142.898198,44.340635 142.898418,44.340635 142.898639,44.340629 142.898859,44.340615 142.90057,44.34053 142.90363,44.340375 142.90393,44.340348 142.90422,44.340307 142.9045,44.340252 142.90477,44.340182 142.905031,44.340098 142.905281,44.34 142.905523,44.339888 142.905754,44.339761 142.905976,44.33962 142.906188,44.339464 142.90639,44.339295 142.906806,44.338934 142.906996,44.338779 142.907108,44.33869 142.907227,44.338606 142.907354,44.338526 142.907487,44.338451 142.907628,44.338379 142.907776,44.338311 142.907931,44.338248 142.908094,44.338189 142.908263,44.338134 142.90844,44.338083 142.908624,44.338036 142.91088,44.337465 142.914391,44.336574 142.914833,44.336463 142.915233,44.33635 142.915585,44.336243 142.915866,44.33615 142.91613,44.336051 142.916535,44.335899 142.917129,44.335677 142.921341,44.334084 142.921598,44.333992 142.92181,44.333923 142.922057,44.333852 142.92232,44.333789 142.922564,44.333739 142.922821,44.333699 142.92306,44.333672 142.923363,44.333647 142.923738,44.333622 142.924795,44.333566 142.925184,44.333543 142.925487,44.333518 142.925801,44.333486 142.926131,44.333445 142.926356,44.333415 142.926633,44.333374 142.926952,44.333325 142.928878,44.333023 142.934519,44.33215 142.93488,44.332095 142.935269,44.332026 142.935535,44.331972 142.935892,44.331897 142.936227,44.331815 142.9365,44.331747 142.936793,44.331665 142.937082,44.331582 142.937391,44.331487 142.93774,44.33137 142.938107,44.331254 142.940846,44.33036 142.941116,44.33027 142.941371,44.330193 142.941672,44.330111 142.941943,44.33004 142.942168,44.329994 142.942407,44.329948 142.94264,44.329913 142.942876,44.329888 142.943176,44.329861 142.943555,44.32984 142.943887,44.329827 142.945341,44.329777 142.948434,44.329666 142.948673,44.329664 142.948951,44.329666 142.949249,44.329696 142.949506,44.329731 142.949885,44.329798 142.950687,44.329938 142.951886,44.330145 142.952151,44.330199 142.952406,44.330264 142.952661,44.330341 142.952873,44.330424 142.953146,44.330546 142.953342,44.330646 142.953522,44.330754 142.953693,44.330867 142.95387,44.331009 142.954021,44.331141 142.954181,44.331306 142.954348,44.331502 142.954546,44.331769 142.957106,44.335132 142.960525,44.339623 142.960791,44.33996 142.961032,44.340269 142.961209,44.340476 142.961389,44.340687 142.961595,44.340904 142.961856,44.341163 142.962335,44.34166 142.963153,44.342506 142.963269,44.342633 142.963376,44.342771 142.963483,44.342938 142.963567,44.343087 142.963671,44.343317 142.965567,44.347631 142.966809,44.350422 142.966914,44.350702 142.966976,44.35093 142.967016,44.351141 142.967027,44.35132 142.967024,44.351513 142.967,44.351767 142.966892,44.352678 142.966592,44.355242 142.966579,44.355447 142.966568,44.355662 142.966579,44.35584 142.966595,44.356043 142.966614,44.356182 142.96666,44.356442 142.967099,44.358824 142.967316,44.359992 142.967362,44.360222 142.967461,44.360627 142.967542,44.360936 142.970629,44.371769 142.970683,44.371947 142.970749,44.372121 142.970824,44.372292 142.97091,44.372458 142.971007,44.372621 142.971115,44.37278 142.971232,44.372935 142.971361,44.373087 142.9715,44.373234 142.971649,44.373378 142.971809,44.373518 142.973896,44.375282 142.979553,44.380076 142.979953,44.380402 142.980231,44.380615 142.980572,44.380858 142.980851,44.381041 142.981127,44.381209 142.981398,44.381364 142.981907,44.381644 142.982294,44.381834 142.98252,44.38194 142.982884,44.382091 142.983654,44.382409 142.984375,44.38271 142.984608,44.382821 142.984834,44.382936 142.985059,44.383074 142.985266,44.383222 142.98539,44.383327 142.985518,44.38345 142.985644,44.383586 142.985775,44.383747 142.985877,44.383885 142.986009,44.384098 142.986111,44.384274 142.98629,44.384585 142.9864,44.384757 142.986526,44.384926 142.986666,44.385081 142.986789,44.385193 142.986912,44.385288 142.987033,44.385373 142.987199,44.385472 142.987419,44.385576 142.98765,44.385674 142.987972,44.385806 142.989758,44.386509 142.989994,44.386594 142.990209,44.38667 142.990499,44.386759 142.990829,44.386849 142.991102,44.386912 142.991378,44.386971 142.991724,44.387031 142.992006,44.387069 142.992333,44.387109 142.992851,44.387178 142.994219,44.387355 142.994536,44.387403 142.994796,44.387456 142.995056,44.387516 142.995348,44.387594 142.995611,44.387679 142.995858,44.387765 142.996083,44.387845 142.996306,44.387939 142.996657,44.388093 143.005173,44.391713 143.009502,44.393551 143.010218,44.393858 143.010484,44.393983 143.010779,44.394142 143.010991,44.394266 143.011198,44.394406 143.01138,44.39455 143.011849,44.394916 143.013891,44.396524 143.014054,44.396647 143.014215,44.396742 143.014378,44.396836 143.014558,44.396921 143.01474,44.397001 143.014937,44.39707 143.015376,44.397229 143.01739,44.397952 143.017653,44.398053 143.017854,44.398145 143.018034,44.398245 143.018168,44.398331 143.01831,44.398446 143.018423,44.398553 143.018546,44.398691 143.018651,44.398843 143.018726,44.398983 143.018788,44.39914 143.018828,44.39932 143.018858,44.399525 143.019043,44.402003 143.019067,44.402294 143.019069,44.402484 143.019061,44.402616 143.019045,44.402741 143.019002,44.402886 143.018938,44.40304 143.018839,44.403214 143.01874,44.403371 143.018603,44.403553 143.018141,44.404147 143.018037,44.404289 143.017972,44.404396 143.017911,44.404511 143.017857,44.404624 143.017822,44.404735 143.017801,44.404852 143.017782,44.404952 143.017777,44.405061 143.017782,44.405191 143.017793,44.405305 143.017814,44.405441 143.017844,44.405548 143.017887,44.405665 143.017948,44.405789 143.018023,44.405912 143.018107,44.406023 143.018195,44.406128 143.018297,44.406236 143.018402,44.40633 143.018522,44.406418 143.01863,44.406489 143.018772,44.406577 143.018984,44.406686 143.01919,44.406786 143.019542,44.406947 143.021156,44.407684 143.02134,44.407782 143.021513,44.407884 143.021676,44.407991 143.021829,44.408102 143.02197,44.408218 143.022101,44.408338 143.022222,44.408462 143.022332,44.408591 143.022431,44.408725 143.02252,44.408862 143.022599,44.409005 143.022667,44.409151 143.022724,44.409302 143.022771,44.409458 143.022807,44.409618 143.022833,44.409782 143.023986,44.415998 143.024254,44.417406 143.024295,44.417575 143.024337,44.417743 143.024391,44.417929 143.024463,44.418149 143.024547,44.418373 143.024697,44.418722 143.024823,44.418981 143.024917,44.419163 143.025072,44.419448 143.025222,44.419699 143.025386,44.419942 143.02556,44.420188 143.025807,44.420538 143.027454,44.422883 143.029549,44.425856 143.03008,44.426624 143.030198,44.426812 143.030268,44.426961 143.030324,44.427088 143.030375,44.427233 143.03041,44.4274 143.030431,44.427547 143.030437,44.427689 143.030431,44.427846 143.030423,44.427971 143.030405,44.428095 143.03037,44.428254 143.030313,44.428457 143.03027,44.428612 143.030227,44.428796 143.030201,44.428942 143.030187,44.429072 143.030182,44.429198 143.030187,44.429325 143.030201,44.429476 143.03023,44.42961 143.030263,44.429723 143.030308,44.429857 143.030359,44.42998 143.030426,44.43012 143.030506,44.430252 143.030619,44.430413 143.031051,44.431028 143.031271,44.431344 143.03288,44.43364 143.033014,44.433828 143.033146,44.433991 143.033288,44.434128 143.033441,44.434272 143.033572,44.434374 143.033714,44.434477 143.033889,44.434592 143.034044,44.434682 143.034221,44.434772 143.034412,44.434862 143.034634,44.434944 143.03494,44.435065 143.03685,44.435783 143.037086,44.435877 143.037276,44.435957 143.037486,44.436053 143.037655,44.436137 143.03785,44.436239 143.038019,44.436339 143.038204,44.436452 143.038561,44.436679 143.039926,44.437513 143.040618,44.437942 143.040879,44.438114 143.04108,44.438259 143.041225,44.438382 143.041394,44.438537 143.041514,44.438685 143.041622,44.438824 143.041718,44.438968 143.041844,44.439165 143.042013,44.439464 143.042153,44.439682 143.042236,44.439803 143.042346,44.439943 143.042464,44.440071 143.042563,44.440169 143.042689,44.440268 143.042858,44.440397 143.043043,44.440512 143.043217,44.440605 143.043389,44.440684 143.04358,44.440755 143.043776,44.440816 143.043974,44.440874 143.044164,44.440916 143.044373,44.44095 143.044604,44.440979 143.044805,44.441 143.04502,44.441009 143.045221,44.441004 143.045422,44.440987 143.045648,44.440964 143.045849,44.440927 143.046058,44.440875 143.046283,44.440814 143.046476,44.440747 143.046632,44.440684 143.046814,44.440596 143.046967,44.440512 143.047099,44.440441 143.047308,44.440303 143.047533,44.440142 143.047774,44.439968 143.04793,44.43987 143.04811,44.439776 143.048249,44.439707 143.04844,44.439631 143.048614,44.439579 143.048807,44.439525 143.049006,44.439487 143.049193,44.439462 143.049424,44.439443 143.04969,44.439435 143.058071,44.439357 143.059911,44.439334 143.060665,44.439334 143.060963,44.43934 143.061245,44.439357 143.061526,44.43938 143.06181,44.439414 143.06206,44.439453 143.062364,44.439508 143.062706,44.439583 143.063264,44.439713 143.068503,44.440946 143.068787,44.441021 143.069069,44.4411 143.069262,44.44117 143.069492,44.441262 143.069685,44.441347 143.069911,44.441454 143.070099,44.441557 143.0703,44.441678 143.070563,44.441846 143.070981,44.442132 143.07376,44.444041 143.074253,44.444363 143.074749,44.444661 143.075104,44.444855 143.075385,44.444998 143.075715,44.445157 143.075975,44.44528 143.076413,44.445464 143.076734,44.44559 143.077217,44.445787 143.079111,44.446571 143.079349,44.446678 143.079588,44.446793 143.079808,44.446915 143.080001,44.44702 143.080202,44.447141 143.080441,44.447296 143.080831,44.447536 143.083287,44.449088 143.090853,44.453846 143.096301,44.457273 143.106013,44.46338 143.107717,44.464452 143.107985,44.464609 143.108299,44.464787 143.108548,44.464931 143.108843,44.465076 143.109481,44.465413 143.109699,44.465534 143.109874,44.465645 143.110007,44.465737 143.110141,44.465873 143.110271,44.466014 143.110385,44.466169 143.110495,44.466332 143.11078,44.466805 143.110903,44.466989 143.111,44.467109 143.111107,44.467216 143.111214,44.467318 143.111329,44.467421 143.111456,44.4675 143.111614,44.467597 143.111796,44.467691 143.112059,44.467812 143.112711,44.468112 143.115326,44.469289 143.115686,44.469458 143.115911,44.469575 143.116109,44.469684 143.116259,44.469772 143.116471,44.469538 143.116549,44.469492 143.116643,44.469519 143.116788,44.469582 </coordinates></LineString></Placemark><Placemark><name>恩根内線</name><description></description><styleUrl>#s4</styleUrl><LineString><extrude>1</extrude><tessellate>1</tessellate><altitudeMode>absolute</altitudeMode><coordinates>142.464519,44.349377 142.463837,44.349374 142.463837,44.349336 142.461279,44.349336 142.458453,44.349333 142.452852,44.349341 142.452359,44.349341 142.452357,44.349552 142.452327,44.349614 142.452256,44.349656 142.452169,44.349667 142.450263,44.349658 142.450254,44.350997 142.450247,44.354016 142.450238,44.3558 142.450233,44.358432 142.450228,44.361085 142.450222,44.361377 142.447749,44.361379 142.447218,44.361375 142.446998,44.361365 142.446821,44.361344 142.446577,44.361296 142.446292,44.361242 142.4461,44.361217 142.445882,44.361206 142.445649,44.361202 142.44529,44.361206 142.440859,44.361198 142.44063,44.361189 142.44047,44.361191 142.440226,44.3612 142.43963,44.361239 142.438981,44.361279 142.438525,44.361309 142.437945,44.361357 142.437686,44.361373 142.437434,44.361388 142.437122,44.361403 142.436742,44.361409 142.43631,44.361409 142.436175,44.361409 142.436202,44.363104 142.436184,44.367179 142.436165,44.370164 142.436159,44.374745 142.436159,44.376077 142.436151,44.376451 142.436138,44.37667 142.436117,44.376811 142.43609,44.376946 142.436039,44.377076 142.435948,44.377229 142.435846,44.377375 142.435741,44.377496 142.435602,44.37762 142.435443,44.377736 142.435304,44.377828 142.43517,44.377891 142.434969,44.377981 142.434666,44.378096 142.42627,44.380945 142.426118,44.380993 142.425969,44.381045 142.425823,44.381101 142.425678,44.38116 142.425537,44.381223 142.425398,44.38129 142.425261,44.38136 142.425127,44.381434 142.424995,44.381512 142.424866,44.381593 142.424739,44.381678 142.424615,44.381767 142.424493,44.381859 142.424374,44.381955 142.424257,44.382055 142.424143,44.382158 142.423901,44.382405 142.423306,44.383019 142.423185,44.383135 142.423056,44.383246 142.422921,44.383353 142.42278,44.383457 142.422632,44.383555 142.422477,44.38365 142.422315,44.383741 142.422147,44.383827 142.421973,44.383909 142.421791,44.383987 142.421603,44.38406 142.421409,44.384129 142.421208,44.384195 142.421,44.384255 142.420786,44.384312 142.420565,44.384364 142.416251,44.385395 142.415999,44.385456 142.415749,44.38551 142.4155,44.385559 142.415252,44.3856 142.415006,44.385635 142.414761,44.385664 142.414517,44.385686 142.414275,44.385702 142.414034,44.385711 142.413794,44.385714 142.413556,44.38571 142.413319,44.385699 142.413083,44.385683 142.412849,44.385659 142.412616,44.385629 142.412384,44.385593 142.411695,44.385482 142.411218,44.385413 142.410813,44.385371 142.410577,44.38535 142.410201,44.385313 142.409858,44.385292 142.409466,44.385279 142.408892,44.385267 142.408501,44.385275 142.408098,44.385288 142.407747,44.385306 142.4071,44.385338 142.400689,44.385674 142.400408,44.385702 142.400223,44.385725 142.400038,44.38576 142.399815,44.385814 142.399614,44.385875 142.399407,44.385942 142.39922,44.386007 142.39904,44.386076 142.398885,44.386161 142.398737,44.386266 142.398582,44.386369 142.398445,44.386484 142.39834,44.386586 142.398222,44.386716 142.398128,44.386837 142.398045,44.386958 142.397986,44.38706 142.397911,44.387226 142.397858,44.387387 142.397807,44.387577 142.397782,44.3877 142.397764,44.387886 142.397763,44.388049 142.397764,44.388265 142.397788,44.388953 142.397785,44.389135 142.397764,44.389277 142.397737,44.389419 142.397697,44.389597 142.397651,44.389768 142.397589,44.389921 142.397501,44.390099 142.397402,44.390291 142.397278,44.390475 142.397152,44.390659 142.397088,44.390768 142.39698,44.390906 142.396857,44.391027 142.396629,44.391236 142.395977,44.391834 142.394848,44.392886 142.394733,44.393011 142.394636,44.39312 142.39454,44.393247 142.394443,44.393388 142.394365,44.393519 142.394282,44.393664 142.394212,44.393804 142.394143,44.39395 142.394089,44.394117 142.394043,44.394274 142.393998,44.394444 142.393974,44.39459 142.393955,44.394759 142.393946,44.394903 142.393942,44.395062 142.393955,44.395219 142.393966,44.395341 142.39399,44.395483 142.394017,44.395623 142.394057,44.395782 142.394119,44.395939 142.394355,44.396507 142.396777,44.402068 142.398664,44.406381 142.398992,44.407171 142.399099,44.407447 142.399207,44.407773 142.399325,44.408115 142.399389,44.408359 142.399483,44.408677 142.400185,44.41125 142.400373,44.411957 142.401446,44.415814 142.401532,44.416115 142.401623,44.416444 142.401846,44.417249 142.401937,44.41758 142.401977,44.417789 142.402023,44.418084 142.402058,44.41835 142.402079,44.418739 142.402082,44.419157 142.402071,44.419452 142.402047,44.419711 142.402004,44.420004 142.401948,44.420316 142.401892,44.420576 142.40179,44.420925 142.401631,44.421433 142.401224,44.422726 142.40004,44.426476 142.399959,44.426736 142.399903,44.426918 142.399865,44.427085 142.399837,44.427236 142.399814,44.427384 142.399805,44.427542 142.399795,44.427665 142.399798,44.427826 142.399806,44.428016 142.39983,44.428196 142.39986,44.42837 142.399896,44.428543 142.39995,44.428734 142.400026,44.42895 142.400115,44.429157 142.401263,44.431752 142.403608,44.436922 142.402579,44.437167 142.396928,44.438455 142.390236,44.439989 142.383649,44.441504 142.377179,44.442989 142.374777,44.443536 142.37221,44.44414 142.369758,44.444681 142.366367,44.445459 142.365654,44.445625 142.365412,44.445687 142.365183,44.445752 142.364975,44.445817 142.364767,44.445898 142.364587,44.445968 142.364349,44.446079 142.364173,44.446171 142.363892,44.446351 142.36372,44.446482 142.36359,44.446597 142.363434,44.446745 142.363295,44.4469 142.363173,44.447047 142.363059,44.447214 142.362954,44.447389 142.362734,44.447779 142.361577,44.450037 142.361012,44.45121 142.360481,44.452367 142.359967,44.453482 142.358976,44.455649 142.357833,44.458144 142.356553,44.460862 142.354539,44.465032 142.352249,44.469767 142.349566,44.475336 142.347672,44.479246 142.346343,44.482019 142.34555,44.483652 142.345287,44.484167 142.344817,44.485156 142.34371,44.487448 142.340637,44.493811 142.338434,44.498372 142.336254,44.502891 142.333961,44.507649 142.331675,44.512362 142.329382,44.517098 142.327099,44.521831 142.326675,44.522706 142.326542,44.523003 142.326432,44.523281 142.326316,44.523581 142.32623,44.523833 142.326169,44.524042 142.326078,44.52435 142.325956,44.524792 142.325627,44.525964 142.325402,44.52674 142.32531,44.527076 142.324946,44.528416 142.324903,44.528568 142.324735,44.529161 142.324664,44.529474 142.324588,44.529833 142.324533,44.530143 142.324503,44.530399 142.324455,44.53082 142.324403,44.531578 142.323985,44.536591 142.323591,44.541594 142.323181,44.546599 142.322879,44.550276 142.322836,44.55079 142.322814,44.550993 142.322782,44.551215 142.322746,44.551383 142.322706,44.551582 142.322623,44.551845 142.322561,44.552039 142.322483,44.552241 142.322408,44.552412 142.322333,44.552567 142.322128,44.553026 142.321673,44.554017 142.321287,44.554839 142.320877,44.555738 142.320589,44.556332 142.3193,44.5591 142.320029,44.55928 142.320118,44.559295 142.320219,44.559288 142.320319,44.559255 142.3204,44.559204 142.320474,44.559127 142.320743,44.558793 142.320827,44.558711 142.320924,44.558646 142.32102,44.558604 142.32115,44.558563 142.322717,44.558213 142.323206,44.55811 142.323452,44.558054 142.323637,44.558025 142.323766,44.558028 142.323902,44.558053 142.324237,44.558106 142.3239,44.55805 142.323765,44.558028 142.323632,44.558025 142.323452,44.558052 142.323208,44.558111 142.322717,44.558213 142.321151,44.558561 142.321022,44.558605 142.320922,44.558645 142.320826,44.558711 142.320743,44.558796 142.320475,44.559125 142.320399,44.559204 142.320321,44.559257 142.320223,44.559289 142.320119,44.559293 142.320031,44.559277 142.319297,44.559097 142.319023,44.559713 142.317634,44.562714 142.316172,44.565904 142.31298,44.572785 142.310652,44.577822 142.308807,44.581803 142.307345,44.584961 142.306004,44.587835 142.305921,44.588047 142.305873,44.588194 142.305817,44.588382 142.305774,44.588601 142.30575,44.588792 142.305742,44.589029 142.305758,44.589242 142.305801,44.589484 142.305857,44.589693 142.305924,44.589872 142.306012,44.59006 142.30612,44.590251 142.306246,44.590436 142.306398,44.590643 142.306586,44.590862 142.307127,44.591478 142.308694,44.593121 142.308043,44.59324 142.303162,44.594502 142.302942,44.594577 142.301581,44.597428 142.301996,44.597509 142.304166,44.597898 142.307501,44.59849 142.30772,44.598523 142.307913,44.598545 142.308075,44.598556 142.308503,44.598595 142.308876,44.598628 </coordinates></LineString></Placemark><Placemark><name>風連線</name><description></description><styleUrl>#s5</styleUrl><LineString><extrude>1</extrude><tessellate>1</tessellate><altitudeMode>absolute</altitudeMode><coordinates>142.464521,44.349377 142.463837,44.349375 142.463839,44.349335 142.461278,44.349338 142.458453,44.349333 142.452357,44.34934 142.452362,44.348456 142.452357,44.346354 142.45387,44.346358 142.456103,44.346361 142.457233,44.34636 142.457253,44.339353 142.45727,44.336926 142.457281,44.336287 142.463625,44.336325 142.464281,44.336325 142.464302,44.331302 142.463598,44.3313 142.457273,44.331292 142.45728,44.330328 142.457279,44.326829 142.457303,44.321416 142.457322,44.316682 142.457322,44.3156 142.457308,44.315438 142.457292,44.315329 142.457268,44.315204 142.457225,44.315072 142.457166,44.314926 142.45708,44.314767 142.456997,44.31464 142.456899,44.31452 142.456773,44.314395 142.456636,44.314288 142.456481,44.314173 142.45633,44.314086 142.456177,44.314003 142.455965,44.313906 142.455764,44.313817 142.455297,44.313627 142.454092,44.313103 142.451657,44.312041 142.45034,44.311484 142.449296,44.311022 142.443644,44.308574 142.438088,44.30617 142.437539,44.305928 142.437238,44.305791 142.436975,44.305672 142.436722,44.305547 142.436502,44.305422 142.436257,44.305271 142.436005,44.305127 142.435842,44.305013 142.435617,44.304852 142.435404,44.30469 142.435172,44.304489 142.434769,44.304143 142.434473,44.30389 142.433986,44.303462 142.433225,44.302801 142.431941,44.301727 142.429569,44.299644 142.428695,44.298885 142.428461,44.298695 142.428361,44.298612 142.428249,44.29854 142.428096,44.298454 142.427967,44.298388 142.427801,44.298321 142.427641,44.298265 142.427354,44.298167 142.426926,44.298012 142.426047,44.297693 142.425773,44.297588 142.425667,44.29753 142.425522,44.297457 142.425399,44.297375 142.425275,44.297288 142.425159,44.29719 142.425036,44.29708 142.42477,44.296849 142.424287,44.296409 142.423649,44.295849 142.421155,44.2937 142.420242,44.292884 142.419901,44.293098 142.418,44.294214 142.41591,44.295441 142.415482,44.295691 142.415493,44.294513 142.415501,44.2924 142.415514,44.290596 142.415519,44.288095 </coordinates></LineString></Placemark><Placemark><name>日進ピヤシリ線</name><description></description><styleUrl>#s6</styleUrl><LineString><extrude>1</extrude><tessellate>1</tessellate><altitudeMode>absolute</altitudeMode><coordinates>142.457236,44.345927 142.457218,44.35325 142.457199,44.355958 142.457203,44.35636 142.462994,44.356381 142.468795,44.356385 142.468793,44.355998 142.468793,44.353515 142.468809,44.349124 142.468797,44.346413 142.468028,44.346405 142.463828,44.346412 142.463828,44.346956 142.463834,44.34942 142.464202,44.349425 142.464273,44.34945 142.464429,44.349588 142.464494,44.349635 142.464619,44.349654 142.46478,44.349653 142.464882,44.349635 142.464952,44.349596 142.464982,44.349559 142.464984,44.349465 142.464934,44.349405 142.464852,44.349377 142.464518,44.349375 142.463834,44.349374 142.463836,44.349336 142.458454,44.349334 142.45236,44.349342 142.452364,44.348457 142.45236,44.347986 142.452358,44.346359 142.450254,44.346366 142.450258,44.346867 142.450256,44.350999 142.450247,44.354015 142.45024,44.355804 142.450233,44.358438 142.450229,44.361085 142.450219,44.361372 142.455145,44.361401 142.456696,44.361385 142.456864,44.361384 142.456979,44.361309 142.457105,44.361225 142.457207,44.361123 142.457211,44.361074 142.457744,44.361088 142.460139,44.361104 142.463782,44.361111 142.463789,44.36176 142.463803,44.363542 142.4638,44.363816 142.463808,44.363939 142.463827,44.364091 142.463866,44.364225 142.463911,44.364346 142.463979,44.3645 142.464158,44.364896 142.464199,44.365057 142.464222,44.365359 142.464232,44.36549 142.464203,44.365899 142.464186,44.366437 142.464169,44.366861 142.464102,44.367308 142.464091,44.367557 142.464095,44.367768 142.46411,44.367933 142.464145,44.368076 142.464209,44.368298 142.464315,44.368534 142.464674,44.369282 142.465195,44.370356 142.465254,44.370546 142.465278,44.370705 142.465289,44.370847 142.465269,44.370998 142.465215,44.371179 142.465143,44.371342 142.465038,44.371501 142.464887,44.371663 142.464561,44.371997 142.464448,44.372144 142.464346,44.372331 142.464282,44.372509 142.464252,44.372709 142.46425,44.372849 142.464251,44.37304 142.464231,44.376476 142.46514,44.376474 142.47346,44.376468 142.473527,44.376319 142.473576,44.376167 142.473591,44.37603 142.473586,44.375913 142.473559,44.375802 142.473506,44.375673 142.473431,44.375542 142.473306,44.375381 142.473129,44.375212 142.473012,44.375092 142.472931,44.374998 142.472875,44.374905 142.47284,44.374805 142.472818,44.374699 142.472804,44.37455 142.472798,44.3744 142.472803,44.374268 142.47283,44.374126 142.472878,44.374007 142.473,44.373786 142.473292,44.373794 142.473424,44.373771 142.473507,44.373686 142.473536,44.373589 142.47351,44.373499 142.473386,44.373407 142.473284,44.373366 142.473003,44.373784 142.472878,44.374008 142.472827,44.374129 142.472802,44.374267 142.472801,44.374403 142.472803,44.37455 142.47282,44.374698 142.472843,44.374806 142.472873,44.374902 142.472932,44.375 142.473013,44.375093 142.473125,44.375212 142.473308,44.375384 142.47343,44.375542 142.473508,44.375675 142.473559,44.375802 142.473587,44.375912 142.473589,44.376028 142.473576,44.376167 142.473527,44.376323 142.473466,44.376469 142.471287,44.376472 142.47128,44.376785 142.471181,44.382591 142.471181,44.383846 142.471196,44.384072 142.471231,44.384284 142.471309,44.384497 142.471446,44.384719 142.471561,44.38487 142.471705,44.384992 142.471882,44.385124 142.47206,44.385219 142.47227,44.3853 142.472484,44.385384 142.472811,44.385474 142.479673,44.387464 142.489339,44.390255 142.490214,44.390504 142.490594,44.390605 142.490855,44.390654 142.491152,44.390709 142.49149,44.390766 142.492054,44.390878 142.492324,44.390956 142.492558,44.391044 142.492864,44.391179 142.493333,44.391395 142.493616,44.391504 142.49388,44.391606 142.494095,44.391678 142.49432,44.391737 142.494639,44.391805 142.495681,44.392021 142.495988,44.392116 142.496248,44.392204 142.49739,44.39265 142.498209,44.392961 142.498451,44.393065 142.498721,44.393193 142.498904,44.393302 142.499073,44.393427 142.499215,44.393546 142.499374,44.393682 142.499532,44.393862 142.499671,44.394044 142.499781,44.394231 142.5001,44.394818 142.500239,44.395003 142.500365,44.395152 142.500491,44.395288 142.500661,44.395437 142.50083,44.395575 142.501047,44.395717 142.501288,44.395857 142.501524,44.395978 142.502015,44.396225 142.506132,44.398354 142.50788,44.399256 142.508137,44.399365 142.508442,44.39945 142.508632,44.399496 142.508963,44.399544 142.509657,44.399651 142.511016,44.399877 142.511218,44.399926 142.511416,44.399989 142.511658,44.400095 142.511921,44.400251 142.514599,44.402055 </coordinates></LineString></Placemark><Folder><name>名士バスPoints</name><open>0</open><description></description></Folder><Folder><name>名寄市内回り徳田線Points</name><open>0</open><description></description><Placemark><name>イオン名寄店前</name><styleUrl>#sp0</styleUrl><Point><coordinates>142.451353,44.338732,0.0</coordinates></Point></Placemark><Placemark><name>16線</name><styleUrl>#sp0</styleUrl><Point><coordinates>142.450266,44.340764,0.0</coordinates></Point></Placemark><Placemark><name>15線</name><styleUrl>#sp0</styleUrl><Point><coordinates>142.450254,44.345555,0.0</coordinates></Point></Placemark><Placemark><name>市立病院前</name><styleUrl>#sp0</styleUrl><Point><coordinates>142.452362,44.348457,0.0</coordinates></Point></Placemark><Placemark><name>8号5丁目</name><styleUrl>#sp0</styleUrl><Point><coordinates>142.450254,44.350997,0.0</coordinates></Point></Placemark><Placemark><name>8号3丁目</name><styleUrl>#sp0</styleUrl><Point><coordinates>142.450247,44.354016,0.0</coordinates></Point></Placemark><Placemark><name>8号1丁目</name><styleUrl>#sp0</styleUrl><Point><coordinates>142.450239,44.355799,0.0</coordinates></Point></Placemark><Placemark><name>6条1丁目</name><styleUrl>#sp0</styleUrl><Point><coordinates>142.45276,44.356353,0.0</coordinates></Point></Placemark><Placemark><name>西4条1丁目</name><styleUrl>#sp0</styleUrl><Point><coordinates>142.457217,44.357103,0.0</coordinates></Point></Placemark><Placemark><name>西4条北2丁目</name><styleUrl>#sp0</styleUrl><Point><coordinates>142.457196,44.359097,0.0</coordinates></Point></Placemark><Placemark><name>西4条北4丁目</name><styleUrl>#sp0</styleUrl><Point><coordinates>142.457745,44.361085,0.0</coordinates></Point></Placemark><Placemark><name>西2条北4丁目</name><styleUrl>#sp0</styleUrl><Point><coordinates>142.460136,44.361102,0.0</coordinates></Point></Placemark><Placemark><name>名寄市立大学前</name><styleUrl>#sp0</styleUrl><Point><coordinates>142.460467,44.363573,0.0</coordinates></Point></Placemark><Placemark><name>東中学校前</name><styleUrl>#sp0</styleUrl><Point><coordinates>142.460464,44.365864,0.0</coordinates></Point></Placemark><Placemark><name>北斗団地前</name><styleUrl>#sp0</styleUrl><Point><coordinates>142.462695,44.366433,0.0</coordinates></Point></Placemark><Placemark><name>大通北7丁目</name><styleUrl>#sp0</styleUrl><Point><coordinates>142.463799,44.363543,0.0</coordinates></Point></Placemark><Placemark><name>大通北4丁目</name><styleUrl>#sp0</styleUrl><Point><coordinates>142.463783,44.361112,0.0</coordinates></Point></Placemark><Placemark><name>大通北2丁目</name><styleUrl>#sp0</styleUrl><Point><coordinates>142.463791,44.358235,0.0</coordinates></Point></Placemark><Placemark><name>東3条南1丁目</name><styleUrl>#sp0</styleUrl><Point><coordinates>142.468791,44.356001,0.0</coordinates></Point></Placemark><Placemark><name>東小学校前</name><styleUrl>#sp0</styleUrl><Point><coordinates>142.468796,44.353518,0.0</coordinates></Point></Placemark><Placemark><name>東3条南7丁目</name><styleUrl>#sp0</styleUrl><Point><coordinates>142.468803,44.349124,0.0</coordinates></Point></Placemark><Placemark><name>名寄公園入口</name><styleUrl>#sp0</styleUrl><Point><coordinates>142.468025,44.346405,0.0</coordinates></Point></Placemark><Placemark><name>大通南9丁目</name><styleUrl>#sp0</styleUrl><Point><coordinates>142.463825,44.346957,0.0</coordinates></Point></Placemark><Placemark><name>名寄駅前</name><styleUrl>#sp0</styleUrl><Point><coordinates>142.464518,44.349377,0.0</coordinates></Point></Placemark><Placemark><name>西2条南6丁目</name><styleUrl>#sp0</styleUrl><Point><coordinates>142.461278,44.349339,0.0</coordinates></Point></Placemark><Placemark><name>西3条南6丁目</name><styleUrl>#sp0</styleUrl><Point><coordinates>142.458451,44.349334,0.0</coordinates></Point></Placemark><Placemark><name>市立病院前</name><styleUrl>#sp0</styleUrl><Point><coordinates>142.452852,44.349341,0.0</coordinates></Point></Placemark><Placemark><name>15線</name><styleUrl>#sp0</styleUrl><Point><coordinates>142.450254,44.345556,0.0</coordinates></Point></Placemark><Placemark><name>16線</name><styleUrl>#sp0</styleUrl><Point><coordinates>142.450265,44.340764,0.0</coordinates></Point></Placemark><Placemark><name>イオン名寄店前</name><styleUrl>#sp0</styleUrl><Point><coordinates>142.451356,44.338733,0.0</coordinates></Point></Placemark></Folder><Folder><name>下川線Points</name><open>0</open><description></description><Placemark><name>市立病院前</name><styleUrl>#sp0</styleUrl><Point><coordinates>142.452362,44.348457,0.0</coordinates></Point></Placemark><Placemark><name>西3条南6丁目</name><styleUrl>#sp0</styleUrl><Point><coordinates>142.458451,44.349334,0.0</coordinates></Point></Placemark><Placemark><name>名寄駅前</name><styleUrl>#sp0</styleUrl><Point><coordinates>142.464518,44.349377,0.0</coordinates></Point></Placemark><Placemark><name>片平病院前</name><styleUrl>#sp0</styleUrl><Point><coordinates>142.463819,44.353659,0.0</coordinates></Point></Placemark><Placemark><name>市役所前</name><styleUrl>#sp0</styleUrl><Point><coordinates>142.463804,44.355758,0.0</coordinates></Point></Placemark><Placemark><name>東4条</name><styleUrl>#sp0</styleUrl><Point><coordinates>142.471221,44.356395,0.0</coordinates></Point></Placemark><Placemark><name>東病院前</name><styleUrl>#sp0</styleUrl><Point><coordinates>142.473318,44.351391,0.0</coordinates></Point></Placemark><Placemark><name>緑丘15線</name><styleUrl>#sp0</styleUrl><Point><coordinates>142.474906,44.345422,0.0</coordinates></Point></Placemark><Placemark><name>緑丘16線</name><styleUrl>#sp0</styleUrl><Point><coordinates>142.475247,44.341399,0.0</coordinates></Point></Placemark><Placemark><name>緑丘17線</name><styleUrl>#sp0</styleUrl><Point><coordinates>142.475735,44.335721,0.0</coordinates></Point></Placemark><Placemark><name>緑丘18線</name><styleUrl>#sp0</styleUrl><Point><coordinates>142.476465,44.331606,0.0</coordinates></Point></Placemark><Placemark><name>中名寄1線</name><styleUrl>#sp0</styleUrl><Point><coordinates>142.487794,44.329576,0.0</coordinates></Point></Placemark><Placemark><name>中名寄2線</name><styleUrl>#sp0</styleUrl><Point><coordinates>142.493694,44.33052,0.0</coordinates></Point></Placemark><Placemark><name>中名寄3線</name><styleUrl>#sp0</styleUrl><Point><coordinates>142.500505,44.331609,0.0</coordinates></Point></Placemark><Placemark><name>中名寄4線</name><styleUrl>#sp0</styleUrl><Point><coordinates>142.507699,44.33244,0.0</coordinates></Point></Placemark><Placemark><name>中名寄5線</name><styleUrl>#sp0</styleUrl><Point><coordinates>142.512628,44.331425,0.0</coordinates></Point></Placemark><Placemark><name>中名寄6線</name><styleUrl>#sp0</styleUrl><Point><coordinates>142.520997,44.329973,0.0</coordinates></Point></Placemark><Placemark><name>中名寄7線</name><styleUrl>#sp0</styleUrl><Point><coordinates>142.528654,44.329429,0.0</coordinates></Point></Placemark><Placemark><name>中名寄8線</name><styleUrl>#sp0</styleUrl><Point><coordinates>142.534612,44.327072,0.0</coordinates></Point></Placemark><Placemark><name>中名寄9線</name><styleUrl>#sp0</styleUrl><Point><coordinates>142.538188,44.321034,0.0</coordinates></Point></Placemark><Placemark><name>中名寄10線</name><styleUrl>#sp0</styleUrl><Point><coordinates>142.54314,44.319512,0.0</coordinates></Point></Placemark><Placemark><name>上名寄11線</name><styleUrl>#sp0</styleUrl><Point><coordinates>142.551647,44.317652,0.0</coordinates></Point></Placemark><Placemark><name>上名寄12線</name><styleUrl>#sp0</styleUrl><Point><coordinates>142.55666,44.315797,0.0</coordinates></Point></Placemark><Placemark><name>上名寄13線</name><styleUrl>#sp0</styleUrl><Point><coordinates>142.560513,44.313834,0.0</coordinates></Point></Placemark><Placemark><name>上名寄14線</name><styleUrl>#sp0</styleUrl><Point><coordinates>142.571049,44.31209,0.0</coordinates></Point></Placemark><Placemark><name>上名寄15線</name><styleUrl>#sp0</styleUrl><Point><coordinates>142.578453,44.311048,0.0</coordinates></Point></Placemark><Placemark><name>上名寄16線</name><styleUrl>#sp0</styleUrl><Point><coordinates>142.585447,44.310057,0.0</coordinates></Point></Placemark><Placemark><name>上名寄17線</name><styleUrl>#sp0</styleUrl><Point><coordinates>142.593422,44.308925,0.0</coordinates></Point></Placemark><Placemark><name>上名寄18線</name><styleUrl>#sp0</styleUrl><Point><coordinates>142.598709,44.308175,0.0</coordinates></Point></Placemark><Placemark><name>上名寄19線</name><styleUrl>#sp0</styleUrl><Point><coordinates>142.60533,44.307235,0.0</coordinates></Point></Placemark><Placemark><name>上名寄20線</name><styleUrl>#sp0</styleUrl><Point><coordinates>142.60877,44.306755,0.0</coordinates></Point></Placemark><Placemark><name>西町21線</name><styleUrl>#sp0</styleUrl><Point><coordinates>142.61581,44.304989,0.0</coordinates></Point></Placemark><Placemark><name>西町22線</name><styleUrl>#sp0</styleUrl><Point><coordinates>142.625019,44.304948,0.0</coordinates></Point></Placemark><Placemark><name>住宅前</name><styleUrl>#sp0</styleUrl><Point><coordinates>142.62933,44.305105,0.0</coordinates></Point></Placemark><Placemark><name>末武商店前</name><styleUrl>#sp0</styleUrl><Point><coordinates>142.633401,44.304319,0.0</coordinates></Point></Placemark><Placemark><name>信金前</name><styleUrl>#sp0</styleUrl><Point><coordinates>142.635872,44.303719,0.0</coordinates></Point></Placemark><Placemark><name>寿フードセンター前</name><styleUrl>#sp0</styleUrl><Point><coordinates>142.639114,44.302942,0.0</coordinates></Point></Placemark><Placemark><name>下川バスターミナル</name><styleUrl>#sp0</styleUrl><Point><coordinates>142.638384,44.300925,0.0</coordinates></Point></Placemark></Folder><Folder><name>興部線Points</name><open>0</open><description></description><Placemark><name>市立病院前</name><styleUrl>#sp0</styleUrl><Point><coordinates>142.452362,44.348457,0.0</coordinates></Point></Placemark><Placemark><name>西3条南6丁目</name><styleUrl>#sp0</styleUrl><Point><coordinates>142.458451,44.349334,0.0</coordinates></Point></Placemark><Placemark><name>名寄駅前</name><styleUrl>#sp0</styleUrl><Point><coordinates>142.464518,44.349377,0.0</coordinates></Point></Placemark><Placemark><name>大通南9丁目</name><styleUrl>#sp0</styleUrl><Point><coordinates>142.463825,44.346958,0.0</coordinates></Point></Placemark><Placemark><name>徳田16線</name><styleUrl>#sp0</styleUrl><Point><coordinates>142.464255,44.341418,0.0</coordinates></Point></Placemark><Placemark><name>徳田17線</name><styleUrl>#sp0</styleUrl><Point><coordinates>142.464271,44.336784,0.0</coordinates></Point></Placemark><Placemark><name>南ヶ丘団地</name><styleUrl>#sp0</styleUrl><Point><coordinates>142.470051,44.336335,0.0</coordinates></Point></Placemark><Placemark><name>緑丘17線</name><styleUrl>#sp0</styleUrl><Point><coordinates>142.475735,44.335721,0.0</coordinates></Point></Placemark><Placemark><name>緑丘18線</name><styleUrl>#sp0</styleUrl><Point><coordinates>142.476465,44.331606,0.0</coordinates></Point></Placemark><Placemark><name>中名寄1線</name><styleUrl>#sp0</styleUrl><Point><coordinates>142.487794,44.329576,0.0</coordinates></Point></Placemark><Placemark><name>中名寄2線</name><styleUrl>#sp0</styleUrl><Point><coordinates>142.493694,44.33052,0.0</coordinates></Point></Placemark><Placemark><name>中名寄3線</name><styleUrl>#sp0</styleUrl><Point><coordinates>142.500505,44.331609,0.0</coordinates></Point></Placemark><Placemark><name>中名寄4線</name><styleUrl>#sp0</styleUrl><Point><coordinates>142.507699,44.33244,0.0</coordinates></Point></Placemark><Placemark><name>中名寄5線</name><styleUrl>#sp0</styleUrl><Point><coordinates>142.512628,44.331425,0.0</coordinates></Point></Placemark><Placemark><name>中名寄6線</name><styleUrl>#sp0</styleUrl><Point><coordinates>142.520997,44.329973,0.0</coordinates></Point></Placemark><Placemark><name>中名寄7線</name><styleUrl>#sp0</styleUrl><Point><coordinates>142.528654,44.329429,0.0</coordinates></Point></Placemark><Placemark><name>中名寄8線</name><styleUrl>#sp0</styleUrl><Point><coordinates>142.534612,44.327072,0.0</coordinates></Point></Placemark><Placemark><name>中名寄9線</name><styleUrl>#sp0</styleUrl><Point><coordinates>142.538188,44.321034,0.0</coordinates></Point></Placemark><Placemark><name>中名寄10線</name><styleUrl>#sp0</styleUrl><Point><coordinates>142.54314,44.319512,0.0</coordinates></Point></Placemark><Placemark><name>上名寄11線</name><styleUrl>#sp0</styleUrl><Point><coordinates>142.551647,44.317652,0.0</coordinates></Point></Placemark><Placemark><name>上名寄12線</name><styleUrl>#sp0</styleUrl><Point><coordinates>142.55666,44.315797,0.0</coordinates></Point></Placemark><Placemark><name>上名寄13線</name><styleUrl>#sp0</styleUrl><Point><coordinates>142.560513,44.313834,0.0</coordinates></Point></Placemark><Placemark><name>上名寄14線</name><styleUrl>#sp0</styleUrl><Point><coordinates>142.571049,44.31209,0.0</coordinates></Point></Placemark><Placemark><name>上名寄15線</name><styleUrl>#sp0</styleUrl><Point><coordinates>142.578453,44.311048,0.0</coordinates></Point></Placemark><Placemark><name>上名寄16線</name><styleUrl>#sp0</styleUrl><Point><coordinates>142.585447,44.310057,0.0</coordinates></Point></Placemark><Placemark><name>上名寄17線</name><styleUrl>#sp0</styleUrl><Point><coordinates>142.593422,44.308925,0.0</coordinates></Point></Placemark><Placemark><name>上名寄18線</name><styleUrl>#sp0</styleUrl><Point><coordinates>142.598709,44.308175,0.0</coordinates></Point></Placemark><Placemark><name>上名寄19線</name><styleUrl>#sp0</styleUrl><Point><coordinates>142.60533,44.307235,0.0</coordinates></Point></Placemark><Placemark><name>上名寄20線</name><styleUrl>#sp0</styleUrl><Point><coordinates>142.60877,44.306755,0.0</coordinates></Point></Placemark><Placemark><name>西町21線</name><styleUrl>#sp0</styleUrl><Point><coordinates>142.61581,44.304989,0.0</coordinates></Point></Placemark><Placemark><name>西町22線</name><styleUrl>#sp0</styleUrl><Point><coordinates>142.625019,44.304948,0.0</coordinates></Point></Placemark><Placemark><name>住宅前</name><styleUrl>#sp0</styleUrl><Point><coordinates>142.62933,44.305105,0.0</coordinates></Point></Placemark><Placemark><name>末武商店前</name><styleUrl>#sp0</styleUrl><Point><coordinates>142.633401,44.304319,0.0</coordinates></Point></Placemark><Placemark><name>信金前</name><styleUrl>#sp0</styleUrl><Point><coordinates>142.635872,44.303719,0.0</coordinates></Point></Placemark><Placemark><name>寿フードセンター前</name><styleUrl>#sp0</styleUrl><Point><coordinates>142.639114,44.302942,0.0</coordinates></Point></Placemark><Placemark><name>下川バスターミナル</name><styleUrl>#sp0</styleUrl><Point><coordinates>142.638384,44.300925,0.0</coordinates></Point></Placemark><Placemark><name>25線</name><styleUrl>#sp0</styleUrl><Point><coordinates>142.643909,44.301779,0.0</coordinates></Point></Placemark><Placemark><name>26線</name><styleUrl>#sp0</styleUrl><Point><coordinates>142.65539,44.302209,0.0</coordinates></Point></Placemark><Placemark><name>28線</name><styleUrl>#sp0</styleUrl><Point><coordinates>142.673572,44.299677,0.0</coordinates></Point></Placemark><Placemark><name>30線</name><styleUrl>#sp0</styleUrl><Point><coordinates>142.679578,44.301047,0.0</coordinates></Point></Placemark><Placemark><name>二の橋</name><styleUrl>#sp0</styleUrl><Point><coordinates>142.693041,44.308616,0.0</coordinates></Point></Placemark><Placemark><name>公民館前</name><styleUrl>#sp0</styleUrl><Point><coordinates>142.699968,44.311023,0.0</coordinates></Point></Placemark><Placemark><name>34線</name><styleUrl>#sp0</styleUrl><Point><coordinates>142.702068,44.312439,0.0</coordinates></Point></Placemark><Placemark><name>36線</name><styleUrl>#sp0</styleUrl><Point><coordinates>142.711128,44.316708,0.0</coordinates></Point></Placemark><Placemark><name>37線</name><styleUrl>#sp0</styleUrl><Point><coordinates>142.719896,44.317017,0.0</coordinates></Point></Placemark><Placemark><name>38線</name><styleUrl>#sp0</styleUrl><Point><coordinates>142.725119,44.316801,0.0</coordinates></Point></Placemark><Placemark><name>幸成</name><styleUrl>#sp0</styleUrl><Point><coordinates>142.733724,44.31645,0.0</coordinates></Point></Placemark><Placemark><name>40線</name><styleUrl>#sp0</styleUrl><Point><coordinates>142.747655,44.317456,0.0</coordinates></Point></Placemark><Placemark><name>診療所前</name><styleUrl>#sp0</styleUrl><Point><coordinates>142.764174,44.319292,0.0</coordinates></Point></Placemark><Placemark><name>一の橋</name><styleUrl>#sp0</styleUrl><Point><coordinates>142.769741,44.318528,0.0</coordinates></Point></Placemark><Placemark><name>行者の滝</name><styleUrl>#sp0</styleUrl><Point><coordinates>142.844964,44.340955,0.0</coordinates></Point></Placemark><Placemark><name>奥興部会館</name><styleUrl>#sp0</styleUrl><Point><coordinates>142.850922,44.336787,0.0</coordinates></Point></Placemark><Placemark><name>興栄ファーム前</name><styleUrl>#sp0</styleUrl><Point><coordinates>142.86393,44.334772,0.0</coordinates></Point></Placemark><Placemark><name>上興部</name><styleUrl>#sp0</styleUrl><Point><coordinates>142.87352,44.336198,0.0</coordinates></Point></Placemark><Placemark><name>小学校前</name><styleUrl>#sp0</styleUrl><Point><coordinates>142.880581,44.336983,0.0</coordinates></Point></Placemark><Placemark><name>民宿ひなた母校前</name><styleUrl>#sp0</styleUrl><Point><coordinates>142.886943,44.338211,0.0</coordinates></Point></Placemark><Placemark><name>上西牧場前</name><styleUrl>#sp0</styleUrl><Point><coordinates>142.90057,44.34053,0.0</coordinates></Point></Placemark><Placemark><name>東興166番地</name><styleUrl>#sp0</styleUrl><Point><coordinates>142.91088,44.337465,0.0</coordinates></Point></Placemark><Placemark><name>吉野牧場前</name><styleUrl>#sp0</styleUrl><Point><coordinates>142.917129,44.335677,0.0</coordinates></Point></Placemark><Placemark><name>テレビ塔入口</name><styleUrl>#sp0</styleUrl><Point><coordinates>142.926356,44.333415,0.0</coordinates></Point></Placemark><Placemark><name>日比牧場前</name><styleUrl>#sp0</styleUrl><Point><coordinates>142.938107,44.331254,0.0</coordinates></Point></Placemark><Placemark><name>忍路子入り口</name><styleUrl>#sp0</styleUrl><Point><coordinates>142.941371,44.330193,0.0</coordinates></Point></Placemark><Placemark><name>西興部</name><styleUrl>#sp0</styleUrl><Point><coordinates>142.945341,44.329777,0.0</coordinates></Point></Placemark><Placemark><name>小学校前</name><styleUrl>#sp0</styleUrl><Point><coordinates>142.950687,44.329938,0.0</coordinates></Point></Placemark><Placemark><name>中学校前</name><styleUrl>#sp0</styleUrl><Point><coordinates>142.957106,44.335132,0.0</coordinates></Point></Placemark><Placemark><name>叶宅前</name><styleUrl>#sp0</styleUrl><Point><coordinates>142.962335,44.34166,0.0</coordinates></Point></Placemark><Placemark><name>宇野牧場前</name><styleUrl>#sp0</styleUrl><Point><coordinates>142.965567,44.347631,0.0</coordinates></Point></Placemark><Placemark><name>六興4線</name><styleUrl>#sp0</styleUrl><Point><coordinates>142.966892,44.352678,0.0</coordinates></Point></Placemark><Placemark><name>菅生牧場前</name><styleUrl>#sp0</styleUrl><Point><coordinates>142.967099,44.358824,0.0</coordinates></Point></Placemark><Placemark><name>田村牧場前</name><styleUrl>#sp0</styleUrl><Point><coordinates>142.973896,44.375282,0.0</coordinates></Point></Placemark><Placemark><name>中興部</name><styleUrl>#sp0</styleUrl><Point><coordinates>142.983654,44.382409,0.0</coordinates></Point></Placemark><Placemark><name>村道入り口</name><styleUrl>#sp0</styleUrl><Point><coordinates>143.005173,44.391713,0.0</coordinates></Point></Placemark><Placemark><name>班渓入口</name><styleUrl>#sp0</styleUrl><Point><coordinates>143.019043,44.402003,0.0</coordinates></Point></Placemark><Placemark><name>三興橋</name><styleUrl>#sp0</styleUrl><Point><coordinates>143.023986,44.415998,0.0</coordinates></Point></Placemark><Placemark><name>宇津小学校</name><styleUrl>#sp0</styleUrl><Point><coordinates>143.027454,44.422883,0.0</coordinates></Point></Placemark><Placemark><name>宇津市街</name><styleUrl>#sp0</styleUrl><Point><coordinates>143.029549,44.425856,0.0</coordinates></Point></Placemark><Placemark><name>宇津1区</name><styleUrl>#sp0</styleUrl><Point><coordinates>143.03288,44.43364,0.0</coordinates></Point></Placemark><Placemark><name>町営牧場</name><styleUrl>#sp0</styleUrl><Point><coordinates>143.058071,44.439357,0.0</coordinates></Point></Placemark><Placemark><name>北興大橋</name><styleUrl>#sp0</styleUrl><Point><coordinates>143.083287,44.449088,0.0</coordinates></Point></Placemark><Placemark><name>河原牧場前</name><styleUrl>#sp0</styleUrl><Point><coordinates>143.090853,44.453846,0.0</coordinates></Point></Placemark><Placemark><name>北興会館</name><styleUrl>#sp0</styleUrl><Point><coordinates>143.096301,44.457273,0.0</coordinates></Point></Placemark><Placemark><name>町営スキー場前</name><styleUrl>#sp0</styleUrl><Point><coordinates>143.106013,44.46338,0.0</coordinates></Point></Placemark><Placemark><name>新町</name><styleUrl>#sp0</styleUrl><Point><coordinates>143.108843,44.465076,0.0</coordinates></Point></Placemark><Placemark><name>幸町</name><styleUrl>#sp0</styleUrl><Point><coordinates>143.112711,44.468112,0.0</coordinates></Point></Placemark></Folder><Folder><name>恩根内線Points</name><open>0</open><description></description><Placemark><name>西2条南6丁目</name><styleUrl>#sp0</styleUrl><Point><coordinates>142.461279,44.349336,0.0</coordinates></Point></Placemark><Placemark><name>西3条南6丁目</name><styleUrl>#sp0</styleUrl><Point><coordinates>142.458453,44.349333,0.0</coordinates></Point></Placemark><Placemark><name>名寄市立病院前</name><styleUrl>#sp0</styleUrl><Point><coordinates>142.452852,44.349341,0.0</coordinates></Point></Placemark><Placemark><name>8号5丁目</name><styleUrl>#sp0</styleUrl><Point><coordinates>142.450254,44.350997,0.0</coordinates></Point></Placemark><Placemark><name>8号3丁目</name><styleUrl>#sp0</styleUrl><Point><coordinates>142.450247,44.354016,0.0</coordinates></Point></Placemark><Placemark><name>8号1丁目</name><styleUrl>#sp0</styleUrl><Point><coordinates>142.450238,44.3558,0.0</coordinates></Point></Placemark><Placemark><name>児童センター入口</name><styleUrl>#sp0</styleUrl><Point><coordinates>142.450233,44.358432,0.0</coordinates></Point></Placemark><Placemark><name>8号</name><styleUrl>#sp0</styleUrl><Point><coordinates>142.450228,44.361085,0.0</coordinates></Point></Placemark><Placemark><name>砺波12線</name><styleUrl>#sp0</styleUrl><Point><coordinates>142.438981,44.361279,0.0</coordinates></Point></Placemark><Placemark><name>砺波11線</name><styleUrl>#sp0</styleUrl><Point><coordinates>142.436184,44.367179,0.0</coordinates></Point></Placemark><Placemark><name>瑞穂10線</name><styleUrl>#sp0</styleUrl><Point><coordinates>142.436165,44.370164,0.0</coordinates></Point></Placemark><Placemark><name>内淵9線</name><styleUrl>#sp0</styleUrl><Point><coordinates>142.436159,44.376077,0.0</coordinates></Point></Placemark><Placemark><name>峠下</name><styleUrl>#sp0</styleUrl><Point><coordinates>142.416251,44.385395,0.0</coordinates></Point></Placemark><Placemark><name>智恵文峠</name><styleUrl>#sp0</styleUrl><Point><coordinates>142.399407,44.385942,0.0</coordinates></Point></Placemark><Placemark><name>大沢</name><styleUrl>#sp0</styleUrl><Point><coordinates>142.394355,44.396507,0.0</coordinates></Point></Placemark><Placemark><name>智南</name><styleUrl>#sp0</styleUrl><Point><coordinates>142.396777,44.402068,0.0</coordinates></Point></Placemark><Placemark><name>南5号</name><styleUrl>#sp0</styleUrl><Point><coordinates>142.400373,44.411957,0.0</coordinates></Point></Placemark><Placemark><name>南4号</name><styleUrl>#sp0</styleUrl><Point><coordinates>142.401446,44.415814,0.0</coordinates></Point></Placemark><Placemark><name>南3号</name><styleUrl>#sp0</styleUrl><Point><coordinates>142.401224,44.422726,0.0</coordinates></Point></Placemark><Placemark><name>南2号</name><styleUrl>#sp0</styleUrl><Point><coordinates>142.399795,44.427665,0.0</coordinates></Point></Placemark><Placemark><name>智恵文11線</name><styleUrl>#sp0</styleUrl><Point><coordinates>142.402579,44.437167,0.0</coordinates></Point></Placemark><Placemark><name>智恵文12線</name><styleUrl>#sp0</styleUrl><Point><coordinates>142.396928,44.438455,0.0</coordinates></Point></Placemark><Placemark><name>智恵文13線</name><styleUrl>#sp0</styleUrl><Point><coordinates>142.390236,44.439989,0.0</coordinates></Point></Placemark><Placemark><name>智恵文14線</name><styleUrl>#sp0</styleUrl><Point><coordinates>142.383649,44.441504,0.0</coordinates></Point></Placemark><Placemark><name>智恵文15線</name><styleUrl>#sp0</styleUrl><Point><coordinates>142.377179,44.442989,0.0</coordinates></Point></Placemark><Placemark><name>智恵文16線</name><styleUrl>#sp0</styleUrl><Point><coordinates>142.369758,44.444681,0.0</coordinates></Point></Placemark><Placemark><name>智恵文17線</name><styleUrl>#sp0</styleUrl><Point><coordinates>142.365412,44.445687,0.0</coordinates></Point></Placemark><Placemark><name>美深3線</name><styleUrl>#sp0</styleUrl><Point><coordinates>142.356553,44.460862,0.0</coordinates></Point></Placemark><Placemark><name>美深4線</name><styleUrl>#sp0</styleUrl><Point><coordinates>142.354539,44.465032,0.0</coordinates></Point></Placemark><Placemark><name>美深5線</name><styleUrl>#sp0</styleUrl><Point><coordinates>142.352249,44.469767,0.0</coordinates></Point></Placemark><Placemark><name>美深中学校</name><styleUrl>#sp0</styleUrl><Point><coordinates>142.349566,44.475336,0.0</coordinates></Point></Placemark><Placemark><name>美深7線</name><styleUrl>#sp0</styleUrl><Point><coordinates>142.347672,44.479246,0.0</coordinates></Point></Placemark><Placemark><name>美深</name><styleUrl>#sp0</styleUrl><Point><coordinates>142.346343,44.482019,0.0</coordinates></Point></Placemark><Placemark><name>美深8線</name><styleUrl>#sp0</styleUrl><Point><coordinates>142.34555,44.483652,0.0</coordinates></Point></Placemark><Placemark><name>美深9線</name><styleUrl>#sp0</styleUrl><Point><coordinates>142.34371,44.487448,0.0</coordinates></Point></Placemark><Placemark><name>美深10線</name><styleUrl>#sp0</styleUrl><Point><coordinates>142.340637,44.493811,0.0</coordinates></Point></Placemark><Placemark><name>美深11線</name><styleUrl>#sp0</styleUrl><Point><coordinates>142.338434,44.498372,0.0</coordinates></Point></Placemark><Placemark><name>美深12線</name><styleUrl>#sp0</styleUrl><Point><coordinates>142.336254,44.502891,0.0</coordinates></Point></Placemark><Placemark><name>美深13線</name><styleUrl>#sp0</styleUrl><Point><coordinates>142.333961,44.507649,0.0</coordinates></Point></Placemark><Placemark><name>美深14線</name><styleUrl>#sp0</styleUrl><Point><coordinates>142.331675,44.512362,0.0</coordinates></Point></Placemark><Placemark><name>美深15線</name><styleUrl>#sp0</styleUrl><Point><coordinates>142.329382,44.517098,0.0</coordinates></Point></Placemark><Placemark><name>美深16線</name><styleUrl>#sp0</styleUrl><Point><coordinates>142.327099,44.521831,0.0</coordinates></Point></Placemark><Placemark><name>西里1線</name><styleUrl>#sp0</styleUrl><Point><coordinates>142.324903,44.528568,0.0</coordinates></Point></Placemark><Placemark><name>西里2線</name><styleUrl>#sp0</styleUrl><Point><coordinates>142.324403,44.531578,0.0</coordinates></Point></Placemark><Placemark><name>西里3線</name><styleUrl>#sp0</styleUrl><Point><coordinates>142.323985,44.536591,0.0</coordinates></Point></Placemark><Placemark><name>西里4線</name><styleUrl>#sp0</styleUrl><Point><coordinates>142.323591,44.541594,0.0</coordinates></Point></Placemark><Placemark><name>西里5線</name><styleUrl>#sp0</styleUrl><Point><coordinates>142.323181,44.546599,0.0</coordinates></Point></Placemark><Placemark><name>西里6選</name><styleUrl>#sp0</styleUrl><Point><coordinates>142.322706,44.551582,0.0</coordinates></Point></Placemark><Placemark><name>美深温泉前</name><styleUrl>#sp0</styleUrl><Point><coordinates>142.324237,44.558106,0.0</coordinates></Point></Placemark><Placemark><name>大手8線</name><styleUrl>#sp0</styleUrl><Point><coordinates>142.319023,44.559713,0.0</coordinates></Point></Placemark><Placemark><name>大手9線</name><styleUrl>#sp0</styleUrl><Point><coordinates>142.317634,44.562714,0.0</coordinates></Point></Placemark><Placemark><name>大手10線</name><styleUrl>#sp0</styleUrl><Point><coordinates>142.316172,44.565904,0.0</coordinates></Point></Placemark><Placemark><name>大手11線</name><styleUrl>#sp0</styleUrl><Point><coordinates>142.31298,44.572785,0.0</coordinates></Point></Placemark><Placemark><name>大手12線</name><styleUrl>#sp0</styleUrl><Point><coordinates>142.310652,44.577822,0.0</coordinates></Point></Placemark><Placemark><name>大手13線</name><styleUrl>#sp0</styleUrl><Point><coordinates>142.308807,44.581803,0.0</coordinates></Point></Placemark><Placemark><name>大手14線</name><styleUrl>#sp0</styleUrl><Point><coordinates>142.307345,44.584961,0.0</coordinates></Point></Placemark><Placemark><name>大手15線</name><styleUrl>#sp0</styleUrl><Point><coordinates>142.305873,44.588194,0.0</coordinates></Point></Placemark><Placemark><name>恩根内16線</name><styleUrl>#sp0</styleUrl><Point><coordinates>142.303162,44.594502,0.0</coordinates></Point></Placemark><Placemark><name>笠原宅前</name><styleUrl>#sp0</styleUrl><Point><coordinates>142.301996,44.597509,0.0</coordinates></Point></Placemark><Placemark><name>恩根内センタープラザ前</name><styleUrl>#sp0</styleUrl><Point><coordinates>142.304166,44.597898,0.0</coordinates></Point></Placemark><Placemark><name>恩根内駅</name><styleUrl>#sp0</styleUrl><Point><coordinates>142.308876,44.598628,0.0</coordinates></Point></Placemark></Folder><Folder><name>風連線Points</name><open>0</open><description></description><Placemark><name>名寄駅前</name><styleUrl>#sp0</styleUrl><Point><coordinates>142.464521,44.349377,0.0</coordinates></Point></Placemark><Placemark><name>西2条南6丁目</name><styleUrl>#sp0</styleUrl><Point><coordinates>142.461278,44.349338,0.0</coordinates></Point></Placemark><Placemark><name>西3条南6丁目</name><styleUrl>#sp0</styleUrl><Point><coordinates>142.458453,44.349333,0.0</coordinates></Point></Placemark><Placemark><name>名寄市立病院前</name><styleUrl>#sp0</styleUrl><Point><coordinates>142.452362,44.348456,0.0</coordinates></Point></Placemark><Placemark><name>西6条南10丁目</name><styleUrl>#sp0</styleUrl><Point><coordinates>142.45387,44.346358,0.0</coordinates></Point></Placemark><Placemark><name>西4条郵便局前</name><styleUrl>#sp0</styleUrl><Point><coordinates>142.456103,44.346361,0.0</coordinates></Point></Placemark><Placemark><name>変電所前</name><styleUrl>#sp0</styleUrl><Point><coordinates>142.457253,44.339353,0.0</coordinates></Point></Placemark><Placemark><name>17線</name><styleUrl>#sp0</styleUrl><Point><coordinates>142.45727,44.336926,0.0</coordinates></Point></Placemark><Placemark><name>徳田17線</name><styleUrl>#sp0</styleUrl><Point><coordinates>142.463625,44.336325,0.0</coordinates></Point></Placemark><Placemark><name>名寄高校前</name><styleUrl>#sp0</styleUrl><Point><coordinates>142.463598,44.3313,0.0</coordinates></Point></Placemark><Placemark><name>18線</name><styleUrl>#sp0</styleUrl><Point><coordinates>142.45728,44.330328,0.0</coordinates></Point></Placemark><Placemark><name>19線</name><styleUrl>#sp0</styleUrl><Point><coordinates>142.457279,44.326829,0.0</coordinates></Point></Placemark><Placemark><name>20線</name><styleUrl>#sp0</styleUrl><Point><coordinates>142.457303,44.321416,0.0</coordinates></Point></Placemark><Placemark><name>21線</name><styleUrl>#sp0</styleUrl><Point><coordinates>142.457322,44.316682,0.0</coordinates></Point></Placemark><Placemark><name>22線</name><styleUrl>#sp0</styleUrl><Point><coordinates>142.45034,44.311484,0.0</coordinates></Point></Placemark><Placemark><name>22線7号</name><styleUrl>#sp0</styleUrl><Point><coordinates>142.443644,44.308574,0.0</coordinates></Point></Placemark><Placemark><name>23線</name><styleUrl>#sp0</styleUrl><Point><coordinates>142.438088,44.30617,0.0</coordinates></Point></Placemark><Placemark><name>24線</name><styleUrl>#sp0</styleUrl><Point><coordinates>142.429569,44.299644,0.0</coordinates></Point></Placemark><Placemark><name>25線</name><styleUrl>#sp0</styleUrl><Point><coordinates>142.423649,44.295849,0.0</coordinates></Point></Placemark><Placemark><name>風連駅前</name><styleUrl>#sp0</styleUrl><Point><coordinates>142.419901,44.293098,0.0</coordinates></Point></Placemark><Placemark><name>病院前</name><styleUrl>#sp0</styleUrl><Point><coordinates>142.418,44.294214,0.0</coordinates></Point></Placemark><Placemark><name>東3号</name><styleUrl>#sp0</styleUrl><Point><coordinates>142.41591,44.295441,0.0</coordinates></Point></Placemark><Placemark><name>住宅前</name><styleUrl>#sp0</styleUrl><Point><coordinates>142.415493,44.294513,0.0</coordinates></Point></Placemark><Placemark><name>風連庁舎前</name><styleUrl>#sp0</styleUrl><Point><coordinates>142.415501,44.2924,0.0</coordinates></Point></Placemark><Placemark><name>小学校前</name><styleUrl>#sp0</styleUrl><Point><coordinates>142.415514,44.290596,0.0</coordinates></Point></Placemark><Placemark><name>道の駅</name><styleUrl>#sp0</styleUrl><Point><coordinates>142.415519,44.288095,0.0</coordinates></Point></Placemark></Folder><Folder><name>日進ピヤシリ線Points</name><open>0</open><description></description><Placemark><name>名士バス</name><styleUrl>#sp0</styleUrl><Point><coordinates>142.457236,44.345927,0.0</coordinates></Point></Placemark><Placemark><name>西4条南3丁目</name><styleUrl>#sp0</styleUrl><Point><coordinates>142.457218,44.35325,0.0</coordinates></Point></Placemark><Placemark><name>西4条1丁目</name><styleUrl>#sp0</styleUrl><Point><coordinates>142.457199,44.355958,0.0</coordinates></Point></Placemark><Placemark><name>市役所前</name><styleUrl>#sp0</styleUrl><Point><coordinates>142.462994,44.356381,0.0</coordinates></Point></Placemark><Placemark><name>東3条南1丁目</name><styleUrl>#sp0</styleUrl><Point><coordinates>142.468793,44.355998,0.0</coordinates></Point></Placemark><Placemark><name>東小学校前</name><styleUrl>#sp0</styleUrl><Point><coordinates>142.468793,44.353515,0.0</coordinates></Point></Placemark><Placemark><name>東3条南7丁目</name><styleUrl>#sp0</styleUrl><Point><coordinates>142.468809,44.349124,0.0</coordinates></Point></Placemark><Placemark><name>名寄公園入口</name><styleUrl>#sp0</styleUrl><Point><coordinates>142.468028,44.346405,0.0</coordinates></Point></Placemark><Placemark><name>大通り南9丁目</name><styleUrl>#sp0</styleUrl><Point><coordinates>142.463828,44.346956,0.0</coordinates></Point></Placemark><Placemark><name>名寄駅前</name><styleUrl>#sp0</styleUrl><Point><coordinates>142.464518,44.349375,0.0</coordinates></Point></Placemark><Placemark><name>西3条南6丁目</name><styleUrl>#sp0</styleUrl><Point><coordinates>142.458454,44.349334,0.0</coordinates></Point></Placemark><Placemark><name>市立病院前</name><styleUrl>#sp0</styleUrl><Point><coordinates>142.452364,44.348457,0.0</coordinates></Point></Placemark><Placemark><name>8号9丁目</name><styleUrl>#sp0</styleUrl><Point><coordinates>142.450258,44.346867,0.0</coordinates></Point></Placemark><Placemark><name>8号5丁目</name><styleUrl>#sp0</styleUrl><Point><coordinates>142.450256,44.350999,0.0</coordinates></Point></Placemark><Placemark><name>8号3丁目</name><styleUrl>#sp0</styleUrl><Point><coordinates>142.450247,44.354015,0.0</coordinates></Point></Placemark><Placemark><name>8号1丁目</name><styleUrl>#sp0</styleUrl><Point><coordinates>142.45024,44.355804,0.0</coordinates></Point></Placemark><Placemark><name>女性児童センター入口</name><styleUrl>#sp0</styleUrl><Point><coordinates>142.450233,44.358438,0.0</coordinates></Point></Placemark><Placemark><name>8号</name><styleUrl>#sp0</styleUrl><Point><coordinates>142.450229,44.361085,0.0</coordinates></Point></Placemark><Placemark><name>産業高校前</name><styleUrl>#sp0</styleUrl><Point><coordinates>142.455145,44.361401,0.0</coordinates></Point></Placemark><Placemark><name>西4条北4丁目</name><styleUrl>#sp0</styleUrl><Point><coordinates>142.457744,44.361088,0.0</coordinates></Point></Placemark><Placemark><name>西2条北4丁目</name><styleUrl>#sp0</styleUrl><Point><coordinates>142.460139,44.361104,0.0</coordinates></Point></Placemark><Placemark><name>大通北5丁目</name><styleUrl>#sp0</styleUrl><Point><coordinates>142.463789,44.36176,0.0</coordinates></Point></Placemark><Placemark><name>大通北7丁目</name><styleUrl>#sp0</styleUrl><Point><coordinates>142.463803,44.363542,0.0</coordinates></Point></Placemark><Placemark><name>北斗団地前</name><styleUrl>#sp0</styleUrl><Point><coordinates>142.464203,44.365899,0.0</coordinates></Point></Placemark><Placemark><name>日進研修センター</name><styleUrl>#sp0</styleUrl><Point><coordinates>142.464251,44.37304,0.0</coordinates></Point></Placemark><Placemark><name>日進9線</name><styleUrl>#sp0</styleUrl><Point><coordinates>142.46514,44.376474,0.0</coordinates></Point></Placemark><Placemark><name>サンピラー交流館</name><styleUrl>#sp0</styleUrl><Point><coordinates>142.473424,44.373771,0.0</coordinates></Point></Placemark><Placemark><name>健康の森</name><styleUrl>#sp0</styleUrl><Point><coordinates>142.47128,44.376785,0.0</coordinates></Point></Placemark><Placemark><name>ユースホステル前</name><styleUrl>#sp0</styleUrl><Point><coordinates>142.471181,44.382591,0.0</coordinates></Point></Placemark><Placemark><name>日進憩いの森前</name><styleUrl>#sp0</styleUrl><Point><coordinates>142.479673,44.387464,0.0</coordinates></Point></Placemark><Placemark><name>ピヤシリスキー場</name><styleUrl>#sp0</styleUrl><Point><coordinates>142.514599,44.402055,0.0</coordinates></Point></Placemark></Folder></Document></kml>